{
"type": "FeatureCollection",
"name": "hulls",
"crs": { "type": "name", "properties": { "name": "urn:ogc:def:crs:OGC:1.3:CRS84" } },
"features": [
{ "type": "Feature", "properties": { "id": "200-10_0_3" }, "geometry": { "type": "Polygon", "coordinates": [ [ [ 8.64259735671941, 47.41205308613273 ], [ 8.641705694246646, 47.412306448871085 ], [ 8.642554689463175, 47.414635531484549 ], [ 8.643166472269389, 47.41532612896949 ], [ 8.645496170489247, 47.415407409139831 ], [ 8.646364804963181, 47.414703741674515 ], [ 8.646617408481369, 47.414245010145486 ], [ 8.645210008480433, 47.412922110145452 ], [ 8.64259735671941, 47.41205308613273 ] ] ] } },
{ "type": "Feature", "properties": { "id": "200-10_1_3" }, "geometry": { "type": "Polygon", "coordinates": [ [ [ 8.639765955588222, 47.412564458922503 ], [ 8.639354151736621, 47.412727791139694 ], [ 8.639200919473572, 47.41278888866119 ], [ 8.638910508474373, 47.412907110147316 ], [ 8.637959594218479, 47.414491170323984 ], [ 8.639977108474522, 47.415699310147907 ], [ 8.643159541950087, 47.416903985714384 ], [ 8.642949501734671, 47.415471998744195 ], [ 8.641873590208675, 47.413483865998124 ], [ 8.639765955588222, 47.412564458922503 ] ] ] } },
{ "type": "Feature", "properties": { "id": "200-11_0_3" }, "geometry": { "type": "Polygon", "coordinates": [ [ [ 8.647228308483228, 47.410204410144019 ], [ 8.646874381234058, 47.410255535841237 ], [ 8.646081308481737, 47.411435410144762 ], [ 8.645210008480433, 47.412922110145452 ], [ 8.645165374904643, 47.413230783088991 ], [ 8.645551208480539, 47.413620710145601 ], [ 8.645797845639532, 47.413804462721387 ], [ 8.64597440848085, 47.413916710145571 ], [ 8.646212851116639, 47.41406204867949 ], [ 8.646733763744372, 47.413773825268592 ], [ 8.648827503018031, 47.411971611163231 ], [ 8.649082108484532, 47.411722610143961 ], [ 8.649393729275891, 47.411249371766026 ], [ 8.649434808485069, 47.411088410143655 ], [ 8.64926580848495, 47.410969010143681 ], [ 8.647228308483228, 47.410204410144019 ] ] ] } },
{ "type": "Feature", "properties": { "id": "200-12_0_4" }, "geometry": { "type": "Polygon", "coordinates": [ [ [ 8.631407079261983, 47.418122499621525 ], [ 8.631310099173342, 47.418180815711786 ], [ 8.63077080846449, 47.419419910151781 ], [ 8.630555808464063, 47.420112210152041 ], [ 8.630311680070923, 47.421225001294097 ], [ 8.631023908463996, 47.421744710152375 ], [ 8.631586408464564, 47.421680810152246 ], [ 8.633283201000962, 47.419620429840982 ], [ 8.633564371783834, 47.418657985346464 ], [ 8.631407079261983, 47.418122499621525 ] ] ] } },
{ "type": "Feature", "properties": { "id": "200-13_0_2" }, "geometry": { "type": "Polygon", "coordinates": [ [ [ 8.630134012274626, 47.421488398737218 ], [ 8.629691908462725, 47.421719810152808 ], [ 8.628725308461634, 47.422230510153256 ], [ 8.630737108638582, 47.423122782622897 ], [ 8.631644755277518, 47.42317503098289 ], [ 8.631637480064079, 47.422267010332142 ], [ 8.631023908463996, 47.421744710152375 ], [ 8.630134012274626, 47.421488398737218 ] ] ] } },
{ "type": "Feature", "properties": { "id": "200-14_0_6" }, "geometry": { "type": "Polygon", "coordinates": [ [ [ 8.629986708462575, 47.423090210153141 ], [ 8.629369227002398, 47.424285907966031 ], [ 8.629133831500013, 47.424985920310085 ], [ 8.629426128164859, 47.426254693302788 ], [ 8.63066763569973, 47.426622844884982 ], [ 8.631305108462735, 47.426626810153842 ], [ 8.633701502012922, 47.42626099022182 ], [ 8.633677408465228, 47.425939310152941 ], [ 8.633051948056693, 47.42377900376728 ], [ 8.632900571114105, 47.423276752041119 ], [ 8.631416608463933, 47.423155510152732 ], [ 8.630945508463483, 47.423119510152851 ], [ 8.629986708462575, 47.423090210153141 ] ] ] } },
{ "type": "Feature", "properties": { "id": "200-15_0_3" }, "geometry": { "type": "Polygon", "coordinates": [ [ [ 8.628204408461073, 47.422407310153439 ], [ 8.628042608460895, 47.42249101015355 ], [ 8.627787708460604, 47.422634410153641 ], [ 8.627460608460183, 47.422982010153866 ], [ 8.62723880845985, 47.423351510153992 ], [ 8.627376808459909, 47.423583110154055 ], [ 8.628856408461212, 47.423972110153755 ], [ 8.629355708461672, 47.424025510153626 ], [ 8.630426866858521, 47.423118602010639 ], [ 8.629629040159353, 47.422682879806601 ], [ 8.628204408461073, 47.422407310153439 ] ] ] } },
{ "type": "Feature", "properties": { "id": "200-16_0_6" }, "geometry": { "type": "Polygon", "coordinates": [ [ [ 8.625502208458386, 47.422696810154342 ], [ 8.624642315877798, 47.423249577303928 ], [ 8.624625908457313, 47.423418310154815 ], [ 8.625389954077148, 47.425200803275779 ], [ 8.626575208458373, 47.426007110155055 ], [ 8.62696573536722, 47.426120076507097 ], [ 8.627354055139149, 47.426223509732537 ], [ 8.628018408459685, 47.426244310154672 ], [ 8.628501250165913, 47.426245870934359 ], [ 8.628925108460763, 47.425589010154241 ], [ 8.629036543448857, 47.42536239175891 ], [ 8.629149717168294, 47.424585496335069 ], [ 8.628856408461212, 47.423972110153755 ], [ 8.628158308460725, 47.423392610153783 ], [ 8.625502208458386, 47.422696810154342 ] ] ] } },
{ "type": "Feature", "properties": { "id": "200-2_0_6" }, "geometry": { "type": "Polygon", "coordinates": [ [ [ 8.643971208480787, 47.40800881014431 ], [ 8.639945708476679, 47.408760710145728 ], [ 8.638554867783359, 47.41031335860535 ], [ 8.639158396606453, 47.410515190620302 ], [ 8.639512208475669, 47.410633510146454 ], [ 8.641730547518888, 47.411139325155609 ], [ 8.643928708480091, 47.410092810144967 ], [ 8.644366048466921, 47.40971251129131 ], [ 8.644428208481036, 47.408620510144296 ], [ 8.644334908481106, 47.408123110144203 ], [ 8.643971208480787, 47.40800881014431 ] ] ] } },
{ "type": "Feature", "properties": { "id": "200-3_0_4" }, "geometry": { "type": "Polygon", "coordinates": [ [ [ 8.632108808468713, 47.410103410148416 ], [ 8.628924708465528, 47.410477110149486 ], [ 8.626874375598614, 47.414225527410537 ], [ 8.632074808466143, 47.418164410150986 ], [ 8.632360208466375, 47.418286110150945 ], [ 8.633729526006157, 47.41849107474183 ], [ 8.6380722468953, 47.416787968650247 ], [ 8.632108808468713, 47.410103410148416 ] ] ] } },
{ "type": "Feature", "properties": { "id": "200-4_0_3" }, "geometry": { "type": "Polygon", "coordinates": [ [ [ 8.639453008472234, 47.421350210149818 ], [ 8.635194608468126, 47.421397710151076 ], [ 8.635052899633196, 47.421512575199259 ], [ 8.634838822098509, 47.421769264042958 ], [ 8.634670351336617, 47.422052502651212 ], [ 8.634372208466955, 47.422577710151714 ], [ 8.63502518414486, 47.423263008088881 ], [ 8.635911023144446, 47.42379802742672 ], [ 8.636653308468672, 47.424093710151517 ], [ 8.636951346333309, 47.424093303840877 ], [ 8.638831708470782, 47.424044010150858 ], [ 8.639069545329066, 47.42402625962476 ], [ 8.640330733413188, 47.4239321247397 ], [ 8.64041130847234, 47.42392611015034 ], [ 8.640682739799111, 47.423905845439855 ], [ 8.640532191938698, 47.423241005852859 ], [ 8.639453008472234, 47.421350210149818 ] ] ] } },
{ "type": "Feature", "properties": { "id": "200-4_1_5" }, "geometry": { "type": "Polygon", "coordinates": [ [ [ 8.633918408466423, 47.422889110151935 ], [ 8.633017378287171, 47.423285386930687 ], [ 8.633406880990524, 47.425143740774708 ], [ 8.633677408465228, 47.425939310152941 ], [ 8.633907888784524, 47.426236187814894 ], [ 8.635862108467261, 47.42614491015236 ], [ 8.636160608467566, 47.426099010152285 ], [ 8.636451027318326, 47.424644286036916 ], [ 8.636121094654845, 47.42401744939334 ], [ 8.635647908467819, 47.423737810151671 ], [ 8.634244412700383, 47.423038686403622 ], [ 8.633918408466423, 47.422889110151935 ] ] ] } },
{ "type": "Feature", "properties": { "id": "200-6_0_6" }, "geometry": { "type": "Polygon", "coordinates": [ [ [ 8.648183922629757, 47.406415706093064 ], [ 8.64525033917741, 47.406554304609124 ], [ 8.644477008481108, 47.408540510144299 ], [ 8.6457568785227, 47.409366978097161 ], [ 8.647228308483228, 47.410204410144019 ], [ 8.648001808483929, 47.410344610143866 ], [ 8.650974608487493, 47.408119010142286 ], [ 8.651341559914313, 47.407566005074123 ], [ 8.65137681151489, 47.407224155492642 ], [ 8.651256582796384, 47.407144204304849 ], [ 8.651136850056394, 47.407064582573916 ], [ 8.650863970193544, 47.406883117337046 ], [ 8.650743208487679, 47.406802810141883 ], [ 8.649448176932642, 47.406572618758027 ], [ 8.648183922629757, 47.406415706093064 ] ] ] } },
{ "type": "Feature", "properties": { "id": "200-7_0_4" }, "geometry": { "type": "Polygon", "coordinates": [ [ [ 8.624002198330489, 47.418065423391099 ], [ 8.623903608458276, 47.418138010153349 ], [ 8.62384640845808, 47.418600710153548 ], [ 8.624588543665986, 47.419516545773774 ], [ 8.62577135296563, 47.420492517934683 ], [ 8.626207608459762, 47.420474310153409 ], [ 8.626875417300752, 47.420241565917387 ], [ 8.627248769367172, 47.419863376289449 ], [ 8.626022469663811, 47.418310887663623 ], [ 8.624384733002698, 47.418071204965756 ], [ 8.624002198330489, 47.418065423391099 ] ] ] } },
{ "type": "Feature", "properties": { "id": "200-7_1_4" }, "geometry": { "type": "Polygon", "coordinates": [ [ [ 8.625772508460638, 47.41635611015225 ], [ 8.625084408459591, 47.417585310152852 ], [ 8.625762108460149, 47.417896310152749 ], [ 8.625950008460324, 47.417906610152698 ], [ 8.627198608461512, 47.417956810152326 ], [ 8.627178858466323, 47.417048695223876 ], [ 8.626946642773532, 47.41662410651842 ], [ 8.62581050846067, 47.416359410152232 ], [ 8.625772508460638, 47.41635611015225 ] ] ] } },
{ "type": "Feature", "properties": { "id": "200-8_0_4" }, "geometry": { "type": "Polygon", "coordinates": [ [ [ 8.626235898628225, 47.421044170396165 ], [ 8.625144708458098, 47.42250441015441 ], [ 8.626724808459317, 47.423458910154189 ], [ 8.627359208460078, 47.422999010153859 ], [ 8.629284508462378, 47.42157111015289 ], [ 8.628803608462038, 47.4211999101529 ], [ 8.626235898628225, 47.421044170396165 ] ] ] } },
{ "type": "Feature", "properties": { "id": "200-8_1_4" }, "geometry": { "type": "Polygon", "coordinates": [ [ [ 8.629942508464095, 47.418132010151574 ], [ 8.628894539312434, 47.418209864505329 ], [ 8.628442108462508, 47.418584410152143 ], [ 8.627458094458586, 47.420390841887013 ], [ 8.62946358817967, 47.421224877086814 ], [ 8.62973460846289, 47.421327910152669 ], [ 8.630429208463884, 47.420296410152119 ], [ 8.630020618118399, 47.418190432164138 ], [ 8.629942508464095, 47.418132010151574 ] ] ] } },
{ "type": "Feature", "properties": { "id": "200-9_0_4" }, "geometry": { "type": "Polygon", "coordinates": [ [ [ 8.645757208482191, 47.409004610144088 ], [ 8.643423508479673, 47.409882010145026 ], [ 8.642972915037261, 47.411906932238765 ], [ 8.643481545007324, 47.412420194909402 ], [ 8.64491629370545, 47.413139245418733 ], [ 8.645210008480433, 47.412922110145452 ], [ 8.646049008481514, 47.412038710144977 ], [ 8.647228308483228, 47.410204410144019 ], [ 8.647252508483385, 47.409774110143886 ], [ 8.646240508482588, 47.409233510144013 ], [ 8.645757208482191, 47.409004610144088 ] ] ] } },
{ "type": "Feature", "properties": { "id": "52-12_0_4" }, "geometry": { "type": "Polygon", "coordinates": [ [ [ 8.637619945856883, 47.427298956454706 ], [ 8.628928033104801, 47.431308234482529 ], [ 8.632336508462059, 47.431887710155195 ], [ 8.634287292802664, 47.431967013725313 ], [ 8.640346508469911, 47.431407110152698 ], [ 8.643029191186537, 47.427950966894166 ], [ 8.642244908472984, 47.427472510150899 ], [ 8.637619945856883, 47.427298956454706 ] ] ] } },
{ "type": "Feature", "properties": { "id": "52-15_0_5" }, "geometry": { "type": "Polygon", "coordinates": [ [ [ 8.643688763794465, 47.427729116567299 ], [ 8.641665704920172, 47.429081336788379 ], [ 8.639487828810116, 47.431073912992687 ], [ 8.639284208468821, 47.43163101015309 ], [ 8.638892026654268, 47.434282527510646 ], [ 8.642514820526792, 47.435025043814903 ], [ 8.642980608471431, 47.434603810152936 ], [ 8.646236365366322, 47.429119627914268 ], [ 8.643688763794465, 47.427729116567299 ] ] ] } },
{ "type": "Feature", "properties": { "id": "54-10_0_5" }, "geometry": { "type": "Polygon", "coordinates": [ [ [ 8.622280408457621, 47.415264210152941 ], [ 8.620327808455675, 47.415473310153587 ], [ 8.619964308455293, 47.415587010153672 ], [ 8.619743808454723, 47.416705710154112 ], [ 8.620574508455318, 47.417370710154088 ], [ 8.620901908455556, 47.417618210154082 ], [ 8.621716520122661, 47.41776332916838 ], [ 8.622488908457035, 47.417765910153655 ], [ 8.622493726750816, 47.417765699037446 ], [ 8.623102808457633, 47.417739010153468 ], [ 8.624443508459125, 47.417099310152871 ], [ 8.624721408459472, 47.416859210152708 ], [ 8.624931508459783, 47.416524710152551 ], [ 8.62417500011613, 47.415484489179178 ], [ 8.622280408457621, 47.415264210152941 ] ] ] } },
{ "type": "Feature", "properties": { "id": "54-12_0_4" }, "geometry": { "type": "Polygon", "coordinates": [ [ [ 8.619109408454261, 47.416234910154138 ], [ 8.617971382826131, 47.416365797360399 ], [ 8.617583708452653, 47.416683510154769 ], [ 8.617695108452509, 47.417470310154997 ], [ 8.618016708452625, 47.418086010155072 ], [ 8.619073966320965, 47.418181340743196 ], [ 8.620574508455318, 47.417370710154088 ], [ 8.620834847368419, 47.41717476698112 ], [ 8.620295888116315, 47.416269545868936 ], [ 8.619109408454261, 47.416234910154138 ] ] ] } },
{ "type": "Feature", "properties": { "id": "54-13_0_4" }, "geometry": { "type": "Polygon", "coordinates": [ [ [ 8.614518523901356, 47.417619767272271 ], [ 8.614330108449176, 47.417764310156059 ], [ 8.61359660844829, 47.418327310156464 ], [ 8.613419956776854, 47.418466809016955 ], [ 8.612214024795556, 47.419419817104682 ], [ 8.61228720844665, 47.419535910157165 ], [ 8.614073327677081, 47.420143969555397 ], [ 8.615516737488315, 47.420327522474587 ], [ 8.617906708451814, 47.420347710155824 ], [ 8.618175308452082, 47.42029361015571 ], [ 8.618378008452392, 47.419933910155557 ], [ 8.618217059697699, 47.419588945818525 ], [ 8.617060208451731, 47.417996910155324 ], [ 8.614518523901356, 47.417619767272271 ] ] ] } },
{ "type": "Feature", "properties": { "id": "54-14_0_7" }, "geometry": { "type": "Polygon", "coordinates": [ [ [ 8.615384608448279, 47.423838010157638 ], [ 8.614603712337896, 47.424107047584712 ], [ 8.613081057104877, 47.425408731054496 ], [ 8.612278542335305, 47.427675656608137 ], [ 8.615445408446869, 47.428504310159084 ], [ 8.616771008448358, 47.427814610158507 ], [ 8.617610786531365, 47.427338082753209 ], [ 8.618274646943854, 47.425657424074892 ], [ 8.618203148809961, 47.42542172985825 ], [ 8.618126508450491, 47.425206410157294 ], [ 8.617939508450403, 47.424899510157253 ], [ 8.615384608448279, 47.423838010157638 ] ] ] } },
{ "type": "Feature", "properties": { "id": "54-15_0_5" }, "geometry": { "type": "Polygon", "coordinates": [ [ [ 8.610024208443914, 47.421298710158403 ], [ 8.607945618705942, 47.423556912871909 ], [ 8.607718608440843, 47.424000410159934 ], [ 8.607650566623185, 47.424386512574479 ], [ 8.608240708440764, 47.425827010160361 ], [ 8.611636108444063, 47.425757910159362 ], [ 8.612452984655125, 47.425425016746779 ], [ 8.614491811313766, 47.423459767097214 ], [ 8.614587508447663, 47.423350810157721 ], [ 8.614556109822322, 47.422885796860783 ], [ 8.613668008447267, 47.421807510157514 ], [ 8.612355336277055, 47.421290980758556 ], [ 8.610024208443914, 47.421298710158403 ] ] ] } },
{ "type": "Feature", "properties": { "id": "54-1_0_4" }, "geometry": { "type": "Polygon", "coordinates": [ [ [ 8.616496808451625, 47.416605610155067 ], [ 8.616029908451127, 47.416772110155236 ], [ 8.615459708450294, 47.417682310155683 ], [ 8.615448808450251, 47.417768310155729 ], [ 8.619154108453031, 47.420288410155436 ], [ 8.620330308453958, 47.420940110155314 ], [ 8.62150110845489, 47.421559410155176 ], [ 8.621964015594685, 47.421653729837431 ], [ 8.624098380995758, 47.420563531905287 ], [ 8.6238497937715, 47.418638373441453 ], [ 8.623109786459574, 47.41823506359512 ], [ 8.622501308456945, 47.41808021015374 ], [ 8.616496808451625, 47.416605610155067 ] ] ] } },
{ "type": "Feature", "properties": { "id": "54-2_0_4" }, "geometry": { "type": "Polygon", "coordinates": [ [ [ 8.621395779257757, 47.424983122011071 ], [ 8.618493108450879, 47.425093710157128 ], [ 8.618126508450491, 47.425206410157294 ], [ 8.61781584565915, 47.426279989996274 ], [ 8.617553908449263, 47.427353410158119 ], [ 8.617677200718619, 47.427571639653344 ], [ 8.61892954096478, 47.42784755897577 ], [ 8.619200408450702, 47.427798310157762 ], [ 8.620195609382991, 47.427201011263726 ], [ 8.621036208452905, 47.426436510156826 ], [ 8.621250521710621, 47.42623566658115 ], [ 8.621700508453982, 47.425042710156227 ], [ 8.621395779257757, 47.424983122011071 ] ] ] } },
{ "type": "Feature", "properties": { "id": "54-5_0_4" }, "geometry": { "type": "Polygon", "coordinates": [ [ [ 8.620606086111477, 47.428066911179911 ], [ 8.619716308451018, 47.428387610157827 ], [ 8.619671608450963, 47.428421810157872 ], [ 8.619414708450652, 47.428635910157965 ], [ 8.617801708448379, 47.430901710159148 ], [ 8.618367948973075, 47.431147363027812 ], [ 8.61863549155278, 47.43126342961444 ], [ 8.618785508449198, 47.431328510159013 ], [ 8.621428308451419, 47.432337010158541 ], [ 8.621845008451787, 47.432451310158427 ], [ 8.623178678810717, 47.431481645672747 ], [ 8.623397808453705, 47.4311049101576 ], [ 8.623575208454012, 47.430670110157415 ], [ 8.62282633099275, 47.428756497721977 ], [ 8.62155639884103, 47.428335144660501 ], [ 8.620606086111477, 47.428066911179911 ] ] ] } },
{ "type": "Feature", "properties": { "id": "54-6_0_5" }, "geometry": { "type": "Polygon", "coordinates": [ [ [ 8.620178808453284, 47.422613510155855 ], [ 8.617343708450509, 47.422753210156742 ], [ 8.615789408448899, 47.423112310157293 ], [ 8.615504186411414, 47.423339898516232 ], [ 8.616695843973227, 47.424149881232836 ], [ 8.617939508450403, 47.424899510157253 ], [ 8.618118608450546, 47.424997910157188 ], [ 8.618675418507928, 47.424928779538476 ], [ 8.620735108453184, 47.424636710156328 ], [ 8.621618519449189, 47.423665306842381 ], [ 8.621320008454134, 47.423401910155739 ], [ 8.620178808453284, 47.422613510155855 ] ] ] } },
{ "type": "Feature", "properties": { "id": "54-7_0_4" }, "geometry": { "type": "Polygon", "coordinates": [ [ [ 8.617535382845062, 47.42766412698122 ], [ 8.617342908448945, 47.427715510158286 ], [ 8.616907308448484, 47.427831910158474 ], [ 8.615445408446869, 47.428504310159084 ], [ 8.615102408446466, 47.428721010159265 ], [ 8.615254958624615, 47.429420497961708 ], [ 8.615455908446501, 47.429686810159467 ], [ 8.616171201338704, 47.430166582551948 ], [ 8.616467998306145, 47.430318776517467 ], [ 8.616495749041333, 47.430332011820596 ], [ 8.616938008447667, 47.43053071015931 ], [ 8.617246983148046, 47.430663865466379 ], [ 8.617658508448262, 47.430837110159182 ], [ 8.61777612383818, 47.430814251042818 ], [ 8.618612574415119, 47.430212972281034 ], [ 8.619415447394882, 47.429078634535031 ], [ 8.619742928356024, 47.428407646250314 ], [ 8.619200408450702, 47.427798310157762 ], [ 8.617535382845062, 47.42766412698122 ] ] ] } },
{ "type": "Feature", "properties": { "id": "54-8_0_5" }, "geometry": { "type": "Polygon", "coordinates": [ [ [ 8.62320214707219, 47.425930725744209 ], [ 8.621036208452905, 47.426436510156826 ], [ 8.619971908451786, 47.426727510157221 ], [ 8.620271772014494, 47.42736222040152 ], [ 8.620443530781156, 47.427724900792512 ], [ 8.620628308451993, 47.428098810157465 ], [ 8.622332908453446, 47.428670910157109 ], [ 8.622543388163349, 47.428537723469901 ], [ 8.622795108454138, 47.427879210156725 ], [ 8.623094208454839, 47.426582910156284 ], [ 8.62320214707219, 47.425930725744209 ] ] ] } },
{ "type": "Feature", "properties": { "id": "54-9_0_5" }, "geometry": { "type": "Polygon", "coordinates": [ [ [ 8.614039408448141, 47.420156310156869 ], [ 8.613144819423267, 47.420490284845599 ], [ 8.612083308445888, 47.421329910157837 ], [ 8.613941308447385, 47.422251710157589 ], [ 8.617373308450528, 47.422789210156679 ], [ 8.619820799843787, 47.422944950881011 ], [ 8.620932010435371, 47.422990302409886 ], [ 8.621214141975804, 47.421993191239281 ], [ 8.619170871534068, 47.420885547883728 ], [ 8.618170935848116, 47.420570030851579 ], [ 8.617575108451469, 47.420413010155933 ], [ 8.616261947855296, 47.420271640647734 ], [ 8.614039408448141, 47.420156310156869 ] ] ] } }
]
}
