{
"type": "FeatureCollection",
"name": "plants",
"crs": { "type": "name", "properties": { "name": "urn:ogc:def:crs:OGC:1.3:CRS84" } },
"features": [
{ "type": "Feature", "properties": { "xtf_id": 12081, "Address": "Fuchshalde 15", "PostCode": 8305, "Municipality": "Dietlikon", "Canton": "ZH", "BeginningOfOperation": "2009-03-12T00:00:00", "TotalPower": 6.6, "SubCategory": "Photovoltaic", "PlantCategory": "Attached", "Roof_Area": 190.35977172851562, "Roof_Area_Warning": "False", "Roof_Inclination": 28.0, "Roof_Orientation": 27.0, "SB_uuid": "{D7FE3884-966A-4375-9559-D50058EFDC89}", "bus_name": "bus_LV_54-9_0_5_node_16", "bus_id": 2648, "bus_max_power": 291.2 }, "geometry": { "type": "Point", "coordinates": [ 8.61393738028576, 47.420042536012815 ] } },
{ "type": "Feature", "properties": { "xtf_id": 10919, "Address": "Im Büel 8a", "PostCode": 8306, "Municipality": "Brüttisellen", "Canton": "ZH", "BeginningOfOperation": "2008-06-24T00:00:00", "TotalPower": 10.0, "SubCategory": "Photovoltaic", "PlantCategory": "Attached", "Roof_Area": 113.09679412841797, "Roof_Area_Warning": "False", "Roof_Inclination": 26.0, "Roof_Orientation": 12.0, "SB_uuid": "{746CEB3D-EF5A-4915-8D23-D8A044501B09}", "bus_name": "bus_LV_200-4_0_3_node_9", "bus_id": 1396, "bus_max_power": 291.2 }, "geometry": { "type": "Point", "coordinates": [ 8.637244258420854, 47.423905028447358 ] } },
{ "type": "Feature", "properties": { "xtf_id": 19548, "Address": "Sonnenbühlstrasse 35", "PostCode": 8305, "Municipality": "Dietlikon", "Canton": "ZH", "BeginningOfOperation": "2009-09-23T00:00:00", "TotalPower": 3.4, "SubCategory": "Photovoltaic", "PlantCategory": "Attached", "Roof_Area": 70.752883911132812, "Roof_Area_Warning": "False", "Roof_Inclination": 21.0, "Roof_Orientation": 43.0, "SB_uuid": "{B705FA1C-AF0C-4AD1-9E58-3278EF05D659}", "bus_name": "bus_LV_54-13_0_4_node_26", "bus_id": 2933, "bus_max_power": 291.2 }, "geometry": { "type": "Point", "coordinates": [ 8.615663901505393, 47.418405844695549 ] } },
{ "type": "Feature", "properties": { "xtf_id": 40803, "Address": "Birkenstrasse 6", "PostCode": 8306, "Municipality": "Brüttisellen", "Canton": "ZH", "BeginningOfOperation": "2014-11-04T00:00:00", "TotalPower": 3.27, "SubCategory": "Photovoltaic", "PlantCategory": "Attached", "Roof_Area": 53.497043609619141, "Roof_Area_Warning": "False", "Roof_Inclination": 33.0, "Roof_Orientation": -30.0, "SB_uuid": "{0F09E6EF-EC73-4862-98EF-41D754BAA3A0}", "bus_name": "bus_LV_200-7_0_4_node_54", "bus_id": 3010, "bus_max_power": 291.2 }, "geometry": { "type": "Point", "coordinates": [ 8.62587618641443, 47.418742175137282 ] } },
{ "type": "Feature", "properties": { "xtf_id": 42924, "Address": "Chileweg 11", "PostCode": 8306, "Municipality": "Brüttisellen", "Canton": "ZH", "BeginningOfOperation": "2014-10-17T00:00:00", "TotalPower": 9.3, "SubCategory": "Photovoltaic", "PlantCategory": "Attached", "Roof_Area": 234.05436706542969, "Roof_Area_Warning": "False", "Roof_Inclination": 0.0, "Roof_Orientation": -180.0, "SB_uuid": "{A273BD20-54F3-468A-BF9A-8C393F41EF3E}", "bus_name": "bus_LV_200-4_0_3_node_65", "bus_id": 1452, "bus_max_power": 291.2 }, "geometry": { "type": "Point", "coordinates": [ 8.634964177155421, 47.422120617261193 ] } },
{ "type": "Feature", "properties": { "xtf_id": 49911, "Address": "Sonnenbühlstrasse 23", "PostCode": 8305, "Municipality": "Dietlikon", "Canton": "ZH", "BeginningOfOperation": "2011-12-09T00:00:00", "TotalPower": 8.96, "SubCategory": "Photovoltaic", "PlantCategory": "Attached", "Roof_Area": 130.21495056152344, "Roof_Area_Warning": "False", "Roof_Inclination": 35.0, "Roof_Orientation": 23.0, "SB_uuid": "{71E74127-8A85-4DFA-AE74-F6CFA8BBCDD9}", "bus_name": "bus_LV_54-13_0_4_node_46", "bus_id": 2941, "bus_max_power": 291.2 }, "geometry": { "type": "Point", "coordinates": [ 8.615955273012423, 47.418996557057859 ] } },
{ "type": "Feature", "properties": { "xtf_id": 54046, "Address": "Im Berg 1", "PostCode": 8602, "Municipality": "Wangen", "Canton": "ZH", "BeginningOfOperation": "2012-12-07T00:00:00", "TotalPower": 18.3, "SubCategory": "Photovoltaic", "PlantCategory": "Integrated", "Roof_Area": 20.019638061523438, "Roof_Area_Warning": "True", "Roof_Inclination": 37.0, "Roof_Orientation": 63.0, "SB_uuid": "{2A3F3AF1-24A2-45A3-8034-8660CE3C4057}", "bus_name": "bus_LV_200-10_0_3_node_108", "bus_id": 650, "bus_max_power": 145.6 }, "geometry": { "type": "Point", "coordinates": [ 8.646206714761876, 47.414663648144483 ] } },
{ "type": "Feature", "properties": { "xtf_id": 59185, "Address": "Hofwiesenstrasse 10", "PostCode": 8305, "Municipality": "Dietlikon", "Canton": "ZH", "BeginningOfOperation": "2012-11-09T00:00:00", "TotalPower": 10.5, "SubCategory": "Photovoltaic", "PlantCategory": "Attached", "Roof_Area": 491.92080688476562, "Roof_Area_Warning": "False", "Roof_Inclination": 0.0, "Roof_Orientation": -180.0, "SB_uuid": "{52E6C6AA-17F9-46B2-B050-D3EE7446DEEB}", "bus_name": "bus_LV_54-2_0_4_node_41", "bus_id": 2511, "bus_max_power": 145.6 }, "geometry": { "type": "Point", "coordinates": [ 8.619952897544728, 47.425351319351819 ] } },
{ "type": "Feature", "properties": { "xtf_id": 72287, "Address": "Säntisstrasse 10", "PostCode": 8305, "Municipality": "Dietlikon", "Canton": "ZH", "BeginningOfOperation": "2013-12-22T00:00:00", "TotalPower": 9.8800001, "SubCategory": "Photovoltaic", "PlantCategory": "Attached", "Roof_Area": 195.02684020996094, "Roof_Area_Warning": "False", "Roof_Inclination": 0.0, "Roof_Orientation": -180.0, "SB_uuid": "{82375DA4-19A9-4641-8DF4-855E81FE8E45}", "bus_name": "bus_LV_54-9_0_5_node_77", "bus_id": 2612, "bus_max_power": 145.6 }, "geometry": { "type": "Point", "coordinates": [ 8.619980813654433, 47.422427615150617 ] } },
{ "type": "Feature", "properties": { "xtf_id": 83244, "Address": "Im Blattacher 30", "PostCode": 8602, "Municipality": "Wangen b. Dübendorf", "Canton": "ZH", "BeginningOfOperation": "2015-01-23T00:00:00", "TotalPower": 11.88, "SubCategory": "Photovoltaic", "PlantCategory": "Attached", "Roof_Area": 111.57963562011719, "Roof_Area_Warning": "False", "Roof_Inclination": 20.0, "Roof_Orientation": 60.0, "SB_uuid": "{1B495B50-406E-4ED9-8267-A392E209D531}", "bus_name": "bus_LV_200-11_0_3_node_63", "bus_id": 739, "bus_max_power": 145.6 }, "geometry": { "type": "Point", "coordinates": [ 8.647296120795659, 47.412448434825002 ] } },
{ "type": "Feature", "properties": { "xtf_id": 90044, "Address": "Sonnenbühlstrasse 7", "PostCode": 8305, "Municipality": "Dietlikon", "Canton": "ZH", "BeginningOfOperation": "2015-03-13T00:00:00", "TotalPower": 9.3500004, "SubCategory": "Photovoltaic", "PlantCategory": "Attached", "Roof_Area": 64.920547485351562, "Roof_Area_Warning": "False", "Roof_Inclination": 0.0, "Roof_Orientation": -180.0, "SB_uuid": "{DD1B854C-5248-447A-816A-7B3227EA2F63}", "bus_name": "bus_LV_54-9_0_5_node_43", "bus_id": 2676, "bus_max_power": 291.2 }, "geometry": { "type": "Point", "coordinates": [ 8.61697518250987, 47.420767203488559 ] } },
{ "type": "Feature", "properties": { "xtf_id": 95552, "Address": "Blumenweg 7b", "PostCode": 8303, "Municipality": "Bassersdorf", "Canton": "ZH", "BeginningOfOperation": "2015-09-20T00:00:00", "TotalPower": 7.3600001, "SubCategory": "Photovoltaic", "PlantCategory": "Attached", "Roof_Area": 70.770401000976562, "Roof_Area_Warning": "False", "Roof_Inclination": 0.0, "Roof_Orientation": -180.0, "SB_uuid": "{326290AF-8F1D-4BE6-B782-1AC11DE50911}", "bus_name": "bus_LV_52-15_0_5_node_241", "bus_id": 1971, "bus_max_power": 145.6 }, "geometry": { "type": "Point", "coordinates": [ 8.643510673368871, 47.429048092734718 ] } },
{ "type": "Feature", "properties": { "xtf_id": 96841, "Address": "Hasenrain 8 (Parzelle 4305)", "PostCode": 8305, "Municipality": "Dietlikon", "Canton": "ZH", "BeginningOfOperation": "2015-10-28T00:00:00", "TotalPower": 11.97, "SubCategory": "Photovoltaic", "PlantCategory": "Integrated", "Roof_Area": 124.63031005859375, "Roof_Area_Warning": "False", "Roof_Inclination": 22.0, "Roof_Orientation": 21.0, "SB_uuid": "{474E579B-97CB-436C-8F9B-8AFA2C805E75}", "bus_name": "bus_LV_54-9_0_5_node_127", "bus_id": 2727, "bus_max_power": 291.2 }, "geometry": { "type": "Point", "coordinates": [ 8.614003134316079, 47.421220230100992 ] } },
{ "type": "Feature", "properties": { "xtf_id": 97150, "Address": "Eichelwiesenstrasse 28", "PostCode": 8305, "Municipality": "Dietlikon", "Canton": "ZH", "BeginningOfOperation": "2015-08-06T00:00:00", "TotalPower": 6.21, "SubCategory": "Photovoltaic", "PlantCategory": "Attached", "Roof_Area": 71.452613830566406, "Roof_Area_Warning": "False", "Roof_Inclination": 35.0, "Roof_Orientation": 25.0, "SB_uuid": "{EB02838A-ECB8-4A5C-9738-24C34E0FB154}", "bus_name": "bus_LV_54-12_0_4_node_43", "bus_id": 2013, "bus_max_power": 291.2 }, "geometry": { "type": "Point", "coordinates": [ 8.619013844780142, 47.417670065454324 ] } },
{ "type": "Feature", "properties": { "xtf_id": 98589, "Address": "Blumenweg 5B (PARZELLE 5815)", "PostCode": 8303, "Municipality": "Bassersdorf", "Canton": "ZH", "BeginningOfOperation": "2015-09-17T00:00:00", "TotalPower": 4.9499998, "SubCategory": "Photovoltaic", "PlantCategory": "Attached", "Roof_Area": 124.57038879394531, "Roof_Area_Warning": "False", "Roof_Inclination": 0.0, "Roof_Orientation": -180.0, "SB_uuid": "{55BA620E-6507-483C-BEB5-BFEF6320715E}", "bus_name": "bus_LV_52-15_0_5_node_213", "bus_id": 1895, "bus_max_power": 291.2 }, "geometry": { "type": "Point", "coordinates": [ 8.643764914579405, 47.429153384959882 ] } },
{ "type": "Feature", "properties": { "xtf_id": 98891, "Address": "Blumenweg 5A (PARZELLE 5816)", "PostCode": 8303, "Municipality": "Bassersdorf", "Canton": "ZH", "BeginningOfOperation": "2015-09-17T00:00:00", "TotalPower": 4.9499998, "SubCategory": "Photovoltaic", "PlantCategory": "Attached", "Roof_Area": 124.57038879394531, "Roof_Area_Warning": "False", "Roof_Inclination": 0.0, "Roof_Orientation": -180.0, "SB_uuid": "{55BA620E-6507-483C-BEB5-BFEF6320715E}", "bus_name": "bus_LV_52-15_0_5_node_213", "bus_id": 1895, "bus_max_power": 291.2 }, "geometry": { "type": "Point", "coordinates": [ 8.643726174608959, 47.429198764550357 ] } },
{ "type": "Feature", "properties": { "xtf_id": 102514, "Address": "Schwerzelbodenstrasse 31", "PostCode": 8305, "Municipality": "Dietlikon", "Canton": "ZH", "BeginningOfOperation": "2015-03-20T00:00:00", "TotalPower": 9.1599998, "SubCategory": "Photovoltaic", "PlantCategory": "Attached", "Roof_Area": 72.912651062011719, "Roof_Area_Warning": "False", "Roof_Inclination": 40.0, "Roof_Orientation": 22.0, "SB_uuid": "{9B1F5DD2-1EEC-498A-B4BB-1C88CFFC9C8F}", "bus_name": "bus_LV_54-9_0_5_node_140", "bus_id": 2738, "bus_max_power": 145.6 }, "geometry": { "type": "Point", "coordinates": [ 8.613427006145228, 47.420938241939396 ] } },
{ "type": "Feature", "properties": { "xtf_id": 103038, "Address": "Im Obstgarten 24", "PostCode": 8602, "Municipality": "Wangen", "Canton": "ZH", "BeginningOfOperation": "2016-07-11T00:00:00", "TotalPower": 10.35, "SubCategory": "Photovoltaic", "PlantCategory": "Attached", "Roof_Area": 136.32301330566406, "Roof_Area_Warning": "False", "Roof_Inclination": 0.0, "Roof_Orientation": -180.0, "SB_uuid": "{7BC12040-19C8-42DE-B04C-66061EB0A678}", "bus_name": "bus_LV_200-10_1_3_node_166", "bus_id": 215, "bus_max_power": 291.2 }, "geometry": { "type": "Point", "coordinates": [ 8.639604260349287, 47.414534541755444 ] } },
{ "type": "Feature", "properties": { "xtf_id": 103044, "Address": "Im Obstgarten 28", "PostCode": 8602, "Municipality": "Wangen", "Canton": "ZH", "BeginningOfOperation": "2016-07-11T00:00:00", "TotalPower": 5.1799998, "SubCategory": "Photovoltaic", "PlantCategory": "Attached", "Roof_Area": 92.250312805175781, "Roof_Area_Warning": "False", "Roof_Inclination": 0.0, "Roof_Orientation": -180.0, "SB_uuid": "{B7B704C6-572C-442D-8E48-BD74D8CF577F}", "bus_name": "bus_LV_200-10_1_3_node_182", "bus_id": 205, "bus_max_power": 291.2 }, "geometry": { "type": "Point", "coordinates": [ 8.63976770995434, 47.414730737713867 ] } },
{ "type": "Feature", "properties": { "xtf_id": 103456, "Address": "Bahnhofstrasse 55", "PostCode": 8305, "Municipality": "Dietlikon", "Canton": "ZH", "BeginningOfOperation": "2016-12-01T00:00:00", "TotalPower": 16.8, "SubCategory": "Photovoltaic", "PlantCategory": "Attached", "Roof_Area": 213.47227478027344, "Roof_Area_Warning": "False", "Roof_Inclination": 40.0, "Roof_Orientation": -86.0, "SB_uuid": "{0F79A89B-4696-40AD-A12C-0F6C3ADFE1BF}", "bus_name": "bus_LV_54-6_0_5_node_76", "bus_id": 2586, "bus_max_power": 145.6 }, "geometry": { "type": "Point", "coordinates": [ 8.617703511782393, 47.424330846136215 ] } },
{ "type": "Feature", "properties": { "xtf_id": 104234, "Address": "Fadackerstrasse 11", "PostCode": 8305, "Municipality": "Dietlikon", "Canton": "ZH", "BeginningOfOperation": "2016-09-07T00:00:00", "TotalPower": 29.950001, "SubCategory": "Photovoltaic", "PlantCategory": "Attached", "Roof_Area": 200.95089721679688, "Roof_Area_Warning": "False", "Roof_Inclination": 0.0, "Roof_Orientation": -180.0, "SB_uuid": "{1F6F6FF0-B505-4062-91B7-861C9E92A32F}", "bus_name": "bus_LV_54-9_0_5_node_108", "bus_id": 2721, "bus_max_power": 291.2 }, "geometry": { "type": "Point", "coordinates": [ 8.614513809196314, 47.421538861725573 ] } },
{ "type": "Feature", "properties": { "xtf_id": 108251, "Address": "Pappelstrasse 6", "PostCode": 8305, "Municipality": "Dietlikon", "Canton": "ZH", "BeginningOfOperation": "2016-12-19T00:00:00", "TotalPower": 28.620001, "SubCategory": "Photovoltaic", "PlantCategory": "Attached", "Roof_Area": 188.3114013671875, "Roof_Area_Warning": "False", "Roof_Inclination": 0.0, "Roof_Orientation": -180.0, "SB_uuid": "{286F3EEA-43E1-498C-96CF-7502C60A439D}", "bus_name": "bus_LV_54-1_0_4_node_69", "bus_id": 2827, "bus_max_power": 291.2 }, "geometry": { "type": "Point", "coordinates": [ 8.621591428058895, 47.418561222537669 ] } },
{ "type": "Feature", "properties": { "xtf_id": 108248, "Address": "Pappelstrasse 10", "PostCode": 8305, "Municipality": "Dietlikon", "Canton": "ZH", "BeginningOfOperation": "2016-12-19T00:00:00", "TotalPower": 28.620001, "SubCategory": "Photovoltaic", "PlantCategory": "Attached", "Roof_Area": 188.3114013671875, "Roof_Area_Warning": "False", "Roof_Inclination": 0.0, "Roof_Orientation": -180.0, "SB_uuid": "{286F3EEA-43E1-498C-96CF-7502C60A439D}", "bus_name": "bus_LV_54-1_0_4_node_76", "bus_id": 2829, "bus_max_power": 145.6 }, "geometry": { "type": "Point", "coordinates": [ 8.621624185842288, 47.41824605693062 ] } },
{ "type": "Feature", "properties": { "xtf_id": 108246, "Address": "Pappelstrasse 14", "PostCode": 8305, "Municipality": "Dietlikon", "Canton": "ZH", "BeginningOfOperation": "2016-12-19T00:00:00", "TotalPower": 28.620001, "SubCategory": "Photovoltaic", "PlantCategory": "Attached", "Roof_Area": 256.38348388671875, "Roof_Area_Warning": "False", "Roof_Inclination": 0.0, "Roof_Orientation": -180.0, "SB_uuid": "{0260DEDB-D29A-46A1-A3FB-B07778E24B27}", "bus_name": "bus_LV_54-1_0_4_node_67", "bus_id": 2817, "bus_max_power": 145.6 }, "geometry": { "type": "Point", "coordinates": [ 8.622352931333834, 47.418238596959867 ] } },
{ "type": "Feature", "properties": { "xtf_id": 108244, "Address": "Pappelstrasse 18", "PostCode": 8305, "Municipality": "Dietlikon", "Canton": "ZH", "BeginningOfOperation": "2016-12-19T00:00:00", "TotalPower": 28.620001, "SubCategory": "Photovoltaic", "PlantCategory": "Attached", "Roof_Area": 256.38348388671875, "Roof_Area_Warning": "False", "Roof_Inclination": 0.0, "Roof_Orientation": -180.0, "SB_uuid": "{0260DEDB-D29A-46A1-A3FB-B07778E24B27}", "bus_name": "bus_LV_54-10_0_5_node_14", "bus_id": 2992, "bus_max_power": 291.2 }, "geometry": { "type": "Point", "coordinates": [ 8.622398934246743, 47.41792329542271 ] } },
{ "type": "Feature", "properties": { "xtf_id": 108806, "Address": "Strehlgasse 3", "PostCode": 8602, "Municipality": "Wangen", "Canton": "ZH", "BeginningOfOperation": "2016-09-01T00:00:00", "TotalPower": 3.6, "SubCategory": "Photovoltaic", "PlantCategory": "Integrated", "Roof_Area": 91.919906616210938, "Roof_Area_Warning": "False", "Roof_Inclination": 33.0, "Roof_Orientation": 47.0, "SB_uuid": "{59E8CD7A-5057-496A-A55D-49396097752D}", "bus_name": "bus_LV_200-9_0_4_node_30", "bus_id": 369, "bus_max_power": 291.2 }, "geometry": { "type": "Point", "coordinates": [ 8.644542117065225, 47.410795095783371 ] } },
{ "type": "Feature", "properties": { "xtf_id": 137139, "Address": "Riedenerstrasse 5", "PostCode": 8305, "Municipality": "Dietlikon", "Canton": "ZH", "BeginningOfOperation": "2018-06-07T00:00:00", "TotalPower": 56.639999, "SubCategory": "Photovoltaic", "PlantCategory": "Attached", "Roof_Area": 1037.5308837890625, "Roof_Area_Warning": "False", "Roof_Inclination": 0.0, "Roof_Orientation": 109.0, "SB_uuid": "{82CED38B-FB1A-4675-A495-0E1A66FB9DB6}", "bus_name": "bus_LV_54-6_0_5_node_65", "bus_id": 2535, "bus_max_power": 145.6 }, "geometry": { "type": "Point", "coordinates": [ 8.61656838513332, 47.42394663142764 ] } },
{ "type": "Feature", "properties": { "xtf_id": 114842, "Address": "Im Fasnachtbuck 1", "PostCode": 8602, "Municipality": "Wangen", "Canton": "ZH", "BeginningOfOperation": "2017-06-30T00:00:00", "TotalPower": 32.98, "SubCategory": "Photovoltaic", "PlantCategory": "Integrated", "Roof_Area": 34.185188293457031, "Roof_Area_Warning": "True", "Roof_Inclination": 17.0, "Roof_Orientation": -57.0, "SB_uuid": "{86AAB7FE-C5DB-4A4B-B804-5E9A78243A3D}", "bus_name": "bus_LV_200-10_0_3_node_64", "bus_id": 632, "bus_max_power": 291.2 }, "geometry": { "type": "Point", "coordinates": [ 8.644770927876136, 47.415047442437725 ] } },
{ "type": "Feature", "properties": { "xtf_id": 120365, "Address": "Fuchshalde 1", "PostCode": 8305, "Municipality": "Dietlikon", "Canton": "ZH", "BeginningOfOperation": "2017-08-08T00:00:00", "TotalPower": 11.55, "SubCategory": "Photovoltaic", "PlantCategory": "Attached", "Roof_Area": 126.73152923583984, "Roof_Area_Warning": "False", "Roof_Inclination": 35.0, "Roof_Orientation": 27.0, "SB_uuid": "{0C1FD677-5CAC-465B-8CBE-991E3A479F9D}", "bus_name": "bus_LV_54-13_0_4_node_43", "bus_id": 2926, "bus_max_power": 291.2 }, "geometry": { "type": "Point", "coordinates": [ 8.615344440315683, 47.419542484809064 ] } },
{ "type": "Feature", "properties": { "xtf_id": 123081, "Address": "Fuchshalde 3", "PostCode": 8305, "Municipality": "Dietlikon", "Canton": "ZH", "BeginningOfOperation": "2017-08-08T00:00:00", "TotalPower": 9.9, "SubCategory": "Photovoltaic", "PlantCategory": "Attached", "Roof_Area": 126.73152923583984, "Roof_Area_Warning": "False", "Roof_Inclination": 35.0, "Roof_Orientation": 27.0, "SB_uuid": "{0C1FD677-5CAC-465B-8CBE-991E3A479F9D}", "bus_name": "bus_LV_54-13_0_4_node_68", "bus_id": 2927, "bus_max_power": 291.2 }, "geometry": { "type": "Point", "coordinates": [ 8.615226181484196, 47.41958866419715 ] } },
{ "type": "Feature", "properties": { "xtf_id": 121826, "Address": "Im Obstgarten 19", "PostCode": 8602, "Municipality": "Wangen-Brüttisellen", "Canton": "ZH", "BeginningOfOperation": "2017-07-12T00:00:00", "TotalPower": 17.16, "SubCategory": "Photovoltaic", "PlantCategory": "Attached", "Roof_Area": 170.231201171875, "Roof_Area_Warning": "False", "Roof_Inclination": 0.0, "Roof_Orientation": -180.0, "SB_uuid": "{E029E488-6855-490D-9472-706FB81673D5}", "bus_name": "bus_LV_200-10_1_3_node_136", "bus_id": 197, "bus_max_power": 436.8 }, "geometry": { "type": "Point", "coordinates": [ 8.640208436484649, 47.414294387660661 ] } },
{ "type": "Feature", "properties": { "xtf_id": 121854, "Address": "Obere Wangenstrasse 18d", "PostCode": 8306, "Municipality": "Brüttisellen", "Canton": "ZH", "BeginningOfOperation": "2017-08-31T00:00:00", "TotalPower": 7.71, "SubCategory": "Photovoltaic", "PlantCategory": "Attached", "Roof_Area": 22.856725692749023, "Roof_Area_Warning": "True", "Roof_Inclination": 10.0, "Roof_Orientation": 86.0, "SB_uuid": "{EC895832-D1BA-4FDD-817C-78D2B95CB739}", "bus_name": "bus_LV_200-4_0_3_node_94", "bus_id": 1459, "bus_max_power": 145.6 }, "geometry": { "type": "Point", "coordinates": [ 8.635820102039089, 47.423640934848031 ] } },
{ "type": "Feature", "properties": { "xtf_id": 122088, "Address": "Brunnenwiesenstrasse 26", "PostCode": 8305, "Municipality": "Dietlikon", "Canton": "ZH", "BeginningOfOperation": "2017-07-05T00:00:00", "TotalPower": 19.43, "SubCategory": "Photovoltaic", "PlantCategory": "Attached", "Roof_Area": 41.698818206787109, "Roof_Area_Warning": "True", "Roof_Inclination": 21.0, "Roof_Orientation": 48.0, "SB_uuid": "{A8F5C7F7-1009-4955-9586-F886EE18F47A}", "bus_name": "bus_LV_54-12_0_4_node_44", "bus_id": 2029, "bus_max_power": 291.2 }, "geometry": { "type": "Point", "coordinates": [ 8.619821168880295, 47.41702316305841 ] } },
{ "type": "Feature", "properties": { "xtf_id": 123096, "Address": "Dornenstrasse 17", "PostCode": 8305, "Municipality": "Dietlikon", "Canton": "ZH", "BeginningOfOperation": "2017-10-28T00:00:00", "TotalPower": 19.8, "SubCategory": "Photovoltaic", "PlantCategory": "Attached", "Roof_Area": 97.604957580566406, "Roof_Area_Warning": "False", "Roof_Inclination": 36.0, "Roof_Orientation": 28.0, "SB_uuid": "{0890E76E-B05F-4D8E-B972-EFE1F886F362}", "bus_name": "bus_LV_54-13_0_4_node_99", "bus_id": 2908, "bus_max_power": 145.6 }, "geometry": { "type": "Point", "coordinates": [ 8.618181683848725, 47.420188205571783 ] } },
{ "type": "Feature", "properties": { "xtf_id": 126167, "Address": "Im Fasnachtbuck 15", "PostCode": 8602, "Municipality": "Wangen b. Dübendorf", "Canton": "ZH", "BeginningOfOperation": "2017-11-24T00:00:00", "TotalPower": 7.8, "SubCategory": "Photovoltaic", "PlantCategory": "Attached", "Roof_Area": 65.585304260253906, "Roof_Area_Warning": "False", "Roof_Inclination": 38.0, "Roof_Orientation": -47.0, "SB_uuid": "{97DEF29D-E442-437C-B86C-613AADB061B6}", "bus_name": "bus_LV_200-10_0_3_node_84", "bus_id": 640, "bus_max_power": 145.6 }, "geometry": { "type": "Point", "coordinates": [ 8.643052209954879, 47.415227277420989 ] } },
{ "type": "Feature", "properties": { "xtf_id": 127172, "Address": "Schüracherstrasse 45", "PostCode": 8306, "Municipality": "Brüttisellen", "Canton": "ZH", "BeginningOfOperation": "2018-03-22T00:00:00", "TotalPower": 8.0299997, "SubCategory": "Photovoltaic", "PlantCategory": "Attached", "Roof_Area": 261.90533447265625, "Roof_Area_Warning": "False", "Roof_Inclination": 0.0, "Roof_Orientation": -180.0, "SB_uuid": "{961451B3-6B1F-4DA0-AB14-A66A9DDFA67D}", "bus_name": "bus_LV_200-3_0_4_node_107", "bus_id": 830, "bus_max_power": 145.6 }, "geometry": { "type": "Point", "coordinates": [ 8.635255400916252, 47.417386141944476 ] } },
{ "type": "Feature", "properties": { "xtf_id": 130056, "Address": "Tödistrasse 9", "PostCode": 8305, "Municipality": "Dietlikon", "Canton": "ZH", "BeginningOfOperation": "2018-03-28T00:00:00", "TotalPower": 11.88, "SubCategory": "Photovoltaic", "PlantCategory": "Attached", "Roof_Area": 81.4307861328125, "Roof_Area_Warning": "False", "Roof_Inclination": 32.0, "Roof_Orientation": 23.0, "SB_uuid": "{D036A894-C997-44FA-8A92-62C546B28789}", "bus_name": "bus_LV_54-13_0_4_node_58", "bus_id": 2958, "bus_max_power": 145.6 }, "geometry": { "type": "Point", "coordinates": [ 8.616608230281285, 47.418558138348381 ] } },
{ "type": "Feature", "properties": { "xtf_id": 135986, "Address": "Chileweg 2", "PostCode": 8306, "Municipality": "Wangen-Brüttisellen", "Canton": "ZH", "BeginningOfOperation": "2018-07-20T00:00:00", "TotalPower": 29.4, "SubCategory": "Photovoltaic", "PlantCategory": "Attached", "Roof_Area": 237.01875305175781, "Roof_Area_Warning": "False", "Roof_Inclination": 40.0, "Roof_Orientation": 33.0, "SB_uuid": "{AD8FD598-5D5A-4998-8C83-F1224D100778}", "bus_name": "bus_LV_200-4_1_5_node_62", "bus_id": 1015, "bus_max_power": 145.6 }, "geometry": { "type": "Point", "coordinates": [ 8.633432795156541, 47.422981999587151 ] } },
{ "type": "Feature", "properties": { "xtf_id": 134250, "Address": "Im Fasnachtbuck 21", "PostCode": 8602, "Municipality": "Wangen b. Dübendorf", "Canton": "ZH", "BeginningOfOperation": "2018-05-08T00:00:00", "TotalPower": 17.700001, "SubCategory": "Photovoltaic", "PlantCategory": "Attached", "Roof_Area": 74.803688049316406, "Roof_Area_Warning": "False", "Roof_Inclination": 23.0, "Roof_Orientation": 36.0, "SB_uuid": "{9535DEE0-9E6F-4585-872E-84E50A45F5A2}", "bus_name": "bus_LV_200-10_1_3_node_73", "bus_id": 149, "bus_max_power": 291.2 }, "geometry": { "type": "Point", "coordinates": [ 8.642315544318787, 47.415468826067432 ] } },
{ "type": "Feature", "properties": { "xtf_id": 134956, "Address": "Unterdorfstrasse 28", "PostCode": 8602, "Municipality": "Wangen", "Canton": "ZH", "BeginningOfOperation": "2018-06-27T00:00:00", "TotalPower": 4.27, "SubCategory": "Photovoltaic", "PlantCategory": "Attached", "Roof_Area": 34.030429840087891, "Roof_Area_Warning": "False", "Roof_Inclination": 32.0, "Roof_Orientation": -5.0, "SB_uuid": "{D2DA8082-FA4A-4734-9283-32EE502E990C}", "bus_name": "bus_LV_200-9_0_4_node_54", "bus_id": 365, "bus_max_power": 291.2 }, "geometry": { "type": "Point", "coordinates": [ 8.644895509522046, 47.412356575317339 ] } },
{ "type": "Feature", "properties": { "xtf_id": 137621, "Address": "Unterdorfstrasse 18A-C", "PostCode": 8602, "Municipality": "Wangen b. Dübendorf", "Canton": "ZH", "BeginningOfOperation": "2018-10-05T00:00:00", "TotalPower": 11.7, "SubCategory": "Photovoltaic", "PlantCategory": "Attached", "Roof_Area": 199.85147094726562, "Roof_Area_Warning": "False", "Roof_Inclination": 38.0, "Roof_Orientation": 37.0, "SB_uuid": "{72092077-14EF-4514-B5C3-14F4A23C0F03}", "bus_name": "bus_LV_200-9_0_4_node_1", "bus_id": 320, "bus_max_power": 291.2 }, "geometry": { "type": "Point", "coordinates": [ 8.645246900010193, 47.412074056001558 ] } },
{ "type": "Feature", "properties": { "xtf_id": 138065, "Address": "Mühlegasse 4", "PostCode": 8602, "Municipality": "Wangen bei Dübendorf", "Canton": "ZH", "BeginningOfOperation": "2018-10-03T00:00:00", "TotalPower": 5.31, "SubCategory": "Photovoltaic", "PlantCategory": "Integrated", "Roof_Area": 329.88189697265625, "Roof_Area_Warning": "False", "Roof_Inclination": 26.0, "Roof_Orientation": 59.0, "SB_uuid": "{2F3A8384-8B3D-4499-963C-CEFD19663019}", "bus_name": "bus_LV_200-9_0_4_node_94", "bus_id": 421, "bus_max_power": 291.2 }, "geometry": { "type": "Point", "coordinates": [ 8.644178891453189, 47.411725391895885 ] } },
{ "type": "Feature", "properties": { "xtf_id": 140621, "Address": "Industriestrasse 7", "PostCode": 8305, "Municipality": "Dietlikon", "Canton": "ZH", "BeginningOfOperation": "2018-03-27T00:00:00", "TotalPower": 174.2, "SubCategory": "Photovoltaic", "PlantCategory": "Attached", "Roof_Area": 1736.234375, "Roof_Area_Warning": "False", "Roof_Inclination": 0.0, "Roof_Orientation": -128.0, "SB_uuid": "{13AD5EEA-CAED-4ED2-B192-5A70BF90C4DC}", "bus_name": "bus_MV_504_0_node_103", "bus_id": 91, "bus_max_power": 8800.0 }, "geometry": { "type": "Point", "coordinates": [ 8.624993204697214, 47.415396044276811 ] } },
{ "type": "Feature", "properties": { "xtf_id": 140094, "Address": "Im Obstgarten 10", "PostCode": 8602, "Municipality": "Wangen", "Canton": "ZH", "BeginningOfOperation": "2018-12-07T00:00:00", "TotalPower": 9.8599997, "SubCategory": "Photovoltaic", "PlantCategory": "Attached", "Roof_Area": 42.062416076660156, "Roof_Area_Warning": "False", "Roof_Inclination": 25.0, "Roof_Orientation": -3.0, "SB_uuid": "{1567E940-8D64-4EEF-98CE-62E21FCCA5D2}", "bus_name": "bus_LV_200-10_1_3_node_139", "bus_id": 179, "bus_max_power": 291.2 }, "geometry": { "type": "Point", "coordinates": [ 8.641463581112683, 47.414713102850158 ] } },
{ "type": "Feature", "properties": { "xtf_id": 137302, "Address": "Glärnischstrasse 5a, 5b, 5c", "PostCode": 8305, "Municipality": "Dietlikon", "Canton": "ZH", "BeginningOfOperation": "2019-01-24T00:00:00", "TotalPower": 20.1, "SubCategory": "Photovoltaic", "PlantCategory": "Attached", "Roof_Area": 97.713592529296875, "Roof_Area_Warning": "False", "Roof_Inclination": 0.0, "Roof_Orientation": -66.0, "SB_uuid": "{85C84712-3164-4586-857C-D6848DF868C8}", "bus_name": "bus_LV_54-13_0_4_node_94", "bus_id": 2967, "bus_max_power": 291.2 }, "geometry": { "type": "Point", "coordinates": [ 8.617305278820178, 47.419513513737101 ] } },
{ "type": "Feature", "properties": { "xtf_id": 142494, "Address": "Ruchstuckstrasse 31", "PostCode": 8306, "Municipality": "Brüttisellen", "Canton": "ZH", "BeginningOfOperation": "2019-02-14T00:00:00", "TotalPower": 21.73, "SubCategory": "Photovoltaic", "PlantCategory": "Attached", "Roof_Area": 108.92815399169922, "Roof_Area_Warning": "False", "Roof_Inclination": 46.0, "Roof_Orientation": -44.0, "SB_uuid": "{C1D22D98-2B8D-4D1E-9459-460DA12F4BB8}", "bus_name": "bus_LV_200-3_0_4_node_106", "bus_id": 909, "bus_max_power": 291.2 }, "geometry": { "type": "Point", "coordinates": [ 8.631719703274584, 47.416918958741924 ] } },
{ "type": "Feature", "properties": { "xtf_id": 141316, "Address": "Dübendorfstrasse 6", "PostCode": 8602, "Municipality": "Wangen bei Dübendorf", "Canton": "ZH", "BeginningOfOperation": "2019-03-22T00:00:00", "TotalPower": 16.8, "SubCategory": "Photovoltaic", "PlantCategory": "Attached", "Roof_Area": 136.46513366699219, "Roof_Area_Warning": "False", "Roof_Inclination": 36.0, "Roof_Orientation": -56.0, "SB_uuid": "{E68BE2BC-EA69-410C-910A-6D28882EF690}", "bus_name": "bus_LV_200-9_0_4_node_31", "bus_id": 370, "bus_max_power": 291.2 }, "geometry": { "type": "Point", "coordinates": [ 8.64479342183547, 47.410774483094592 ] } },
{ "type": "Feature", "properties": { "xtf_id": 143605, "Address": "Sonnenbühlstrasse 5", "PostCode": 8305, "Municipality": "Dietlikon", "Canton": "ZH", "BeginningOfOperation": "2019-02-18T00:00:00", "TotalPower": 3.72, "SubCategory": "Photovoltaic", "PlantCategory": "Attached", "Roof_Area": 13.425365447998047, "Roof_Area_Warning": "True", "Roof_Inclination": 25.0, "Roof_Orientation": 27.0, "SB_uuid": "{77DAA9AB-C8ED-4FCD-8A6D-0AAD00858B2C}", "bus_name": "bus_LV_54-9_0_5_node_38", "bus_id": 2672, "bus_max_power": 291.2 }, "geometry": { "type": "Point", "coordinates": [ 8.617045415547267, 47.420946390372613 ] } },
{ "type": "Feature", "properties": { "xtf_id": 145096, "Address": "Schulhausstrasse 18", "PostCode": 8306, "Municipality": "Brüttisellen", "Canton": "ZH", "BeginningOfOperation": "2019-05-29T00:00:00", "TotalPower": 4.8, "SubCategory": "Photovoltaic", "PlantCategory": "Attached", "Roof_Area": 146.30490112304688, "Roof_Area_Warning": "False", "Roof_Inclination": 34.0, "Roof_Orientation": -4.0, "SB_uuid": "{32F45460-C043-4C65-80DD-43E4416C32BC}", "bus_name": "bus_LV_200-4_1_5_node_109", "bus_id": 1007, "bus_max_power": 291.2 }, "geometry": { "type": "Point", "coordinates": [ 8.635274464059801, 47.424132322603093 ] } },
{ "type": "Feature", "properties": { "xtf_id": 145916, "Address": "Sonnhalde 16", "PostCode": 8602, "Municipality": "Wangen b. Dübendorf", "Canton": "ZH", "BeginningOfOperation": "2019-07-26T00:00:00", "TotalPower": 13.21, "SubCategory": "Photovoltaic", "PlantCategory": "Attached", "Roof_Area": 72.233879089355469, "Roof_Area_Warning": "False", "Roof_Inclination": 23.0, "Roof_Orientation": 21.0, "SB_uuid": "{7189F8C0-5317-459F-9400-3A2EF5527300}", "bus_name": "bus_LV_200-10_1_3_node_82", "bus_id": 160, "bus_max_power": 291.2 }, "geometry": { "type": "Point", "coordinates": [ 8.642230764824273, 47.415235833713297 ] } },
{ "type": "Feature", "properties": { "xtf_id": 150867, "Address": "Im Fasnachtbuck 19", "PostCode": 8602, "Municipality": "Wangen bei Dübendorf", "Canton": "ZH", "BeginningOfOperation": "2019-06-26T00:00:00", "TotalPower": 10.68, "SubCategory": "Photovoltaic", "PlantCategory": "Attached", "Roof_Area": 71.629737854003906, "Roof_Area_Warning": "False", "Roof_Inclination": 26.0, "Roof_Orientation": 50.0, "SB_uuid": "{3BC924A2-2CFC-439C-9FB4-BDA05DB6F3BE}", "bus_name": "bus_LV_200-10_1_3_node_73", "bus_id": 149, "bus_max_power": 291.2 }, "geometry": { "type": "Point", "coordinates": [ 8.642479210078649, 47.415674011210761 ] } },
{ "type": "Feature", "properties": { "xtf_id": 147731, "Address": "Bassersdorferstrasse 19", "PostCode": 8305, "Municipality": "Dietlikon", "Canton": "ZH", "BeginningOfOperation": "2019-09-12T00:00:00", "TotalPower": 26.879999, "SubCategory": "Photovoltaic", "PlantCategory": "Attached", "Roof_Area": 352.559326171875, "Roof_Area_Warning": "False", "Roof_Inclination": 0.0, "Roof_Orientation": -180.0, "SB_uuid": "{3ABDC488-2DD5-486D-9E2D-F923B6630296}", "bus_name": "bus_LV_54-5_0_4_node_97", "bus_id": 1697, "bus_max_power": 145.6 }, "geometry": { "type": "Point", "coordinates": [ 8.620424022777071, 47.429259384445409 ] } },
{ "type": "Feature", "properties": { "xtf_id": 149939, "Address": "Dornenstrasse 24", "PostCode": 8305, "Municipality": "Dietlikon", "Canton": "ZH", "BeginningOfOperation": "2019-07-16T00:00:00", "TotalPower": 24.18, "SubCategory": "Photovoltaic", "PlantCategory": "Attached", "Roof_Area": 48.350852966308594, "Roof_Area_Warning": "True", "Roof_Inclination": 0.0, "Roof_Orientation": -180.0, "SB_uuid": "{F4CDF8A9-46D0-4A68-8EF8-E7247FDAE0FA}", "bus_name": "bus_LV_54-9_0_5_node_29", "bus_id": 2638, "bus_max_power": 436.8 }, "geometry": { "type": "Point", "coordinates": [ 8.618324246995277, 47.421239182418127 ] } },
{ "type": "Feature", "properties": { "xtf_id": 149671, "Address": "Gerenstrasse 45", "PostCode": 8602, "Municipality": "Wangen", "Canton": "ZH", "BeginningOfOperation": "2019-03-29T00:00:00", "TotalPower": 6.4, "SubCategory": "Photovoltaic", "PlantCategory": "Attached", "Roof_Area": 61.009849548339844, "Roof_Area_Warning": "False", "Roof_Inclination": 27.0, "Roof_Orientation": -64.0, "SB_uuid": "{CF896A84-98EA-4B88-8F1A-F749965AEF71}", "bus_name": "bus_LV_200-10_1_3_node_15", "bus_id": 127, "bus_max_power": 291.2 }, "geometry": { "type": "Point", "coordinates": [ 8.639473800924771, 47.412862790289502 ] } },
{ "type": "Feature", "properties": { "xtf_id": 148158, "Address": "Im Chrüzacher 18", "PostCode": 8306, "Municipality": "Brüttisellen", "Canton": "ZH", "BeginningOfOperation": "2019-10-03T00:00:00", "TotalPower": 14.95, "SubCategory": "Photovoltaic", "PlantCategory": "Attached", "Roof_Area": 198.18161010742188, "Roof_Area_Warning": "False", "Roof_Inclination": 31.0, "Roof_Orientation": -21.0, "SB_uuid": "{8ED50C85-46E7-4B37-BACB-4F7BF6B41B53}", "bus_name": "bus_LV_200-16_0_6_node_61", "bus_id": 1518, "bus_max_power": 291.2 }, "geometry": { "type": "Point", "coordinates": [ 8.628767052764934, 47.424748198981661 ] } },
{ "type": "Feature", "properties": { "xtf_id": 148431, "Address": "Im Fasnachtbuck 20", "PostCode": 8602, "Municipality": "Wangen", "Canton": "ZH", "BeginningOfOperation": "2019-09-18T00:00:00", "TotalPower": 13.23, "SubCategory": "Photovoltaic", "PlantCategory": "Attached", "Roof_Area": 73.279212951660156, "Roof_Area_Warning": "False", "Roof_Inclination": 31.0, "Roof_Orientation": -45.0, "SB_uuid": "{5B11B003-EA44-4179-B20B-32368B32463F}", "bus_name": "bus_LV_200-10_1_3_node_75", "bus_id": 151, "bus_max_power": 291.2 }, "geometry": { "type": "Point", "coordinates": [ 8.642698517474846, 47.415995554110189 ] } },
{ "type": "Feature", "properties": { "xtf_id": 156601, "Address": "Fuchshalde 7", "PostCode": 8305, "Municipality": "Dietlikon", "Canton": "ZH", "BeginningOfOperation": "2019-12-23T00:00:00", "TotalPower": 11.88, "SubCategory": "Photovoltaic", "PlantCategory": "Attached", "Roof_Area": 129.67118835449219, "Roof_Area_Warning": "False", "Roof_Inclination": 34.0, "Roof_Orientation": 27.0, "SB_uuid": "{A54B389A-40A6-434B-893C-FFE37DD4418E}", "bus_name": "bus_LV_54-13_0_4_node_65", "bus_id": 2929, "bus_max_power": 291.2 }, "geometry": { "type": "Point", "coordinates": [ 8.614739695169288, 47.419764522219992 ] } },
{ "type": "Feature", "properties": { "xtf_id": 159769, "Address": "Sonnhalde 23", "PostCode": 8602, "Municipality": "Wangen bei Dübendorf", "Canton": "ZH", "BeginningOfOperation": "2020-03-13T00:00:00", "TotalPower": 13.13, "SubCategory": "Photovoltaic", "PlantCategory": "Attached", "Roof_Area": 41.741889953613281, "Roof_Area_Warning": "True", "Roof_Inclination": 31.0, "Roof_Orientation": 13.0, "SB_uuid": "{C3BBE6F7-C4A0-42D1-9F88-EFEFEB006825}", "bus_name": "bus_LV_200-10_1_3_node_113", "bus_id": 166, "bus_max_power": 291.2 }, "geometry": { "type": "Point", "coordinates": [ 8.64132373188783, 47.414975418789659 ] } },
{ "type": "Feature", "properties": { "xtf_id": 156286, "Address": "Speerstrasse 2", "PostCode": 8305, "Municipality": "Dietlikon", "Canton": "ZH", "BeginningOfOperation": "2020-03-18T00:00:00", "TotalPower": 12.6, "SubCategory": "Photovoltaic", "PlantCategory": "Attached", "Roof_Area": 97.604957580566406, "Roof_Area_Warning": "False", "Roof_Inclination": 36.0, "Roof_Orientation": 28.0, "SB_uuid": "{A769A245-2488-479D-93C2-63D33F0F6E9A}", "bus_name": "bus_LV_54-13_0_4_node_100", "bus_id": 2913, "bus_max_power": 145.6 }, "geometry": { "type": "Point", "coordinates": [ 8.617865466270695, 47.420272387910003 ] } },
{ "type": "Feature", "properties": { "xtf_id": 159676, "Address": "Im Blattacher 28", "PostCode": 8602, "Municipality": "Wangen b. Dübendorf", "Canton": "ZH", "BeginningOfOperation": "2020-05-05T00:00:00", "TotalPower": 7.5100002, "SubCategory": "Photovoltaic", "PlantCategory": "Attached", "Roof_Area": 20.099458694458008, "Roof_Area_Warning": "True", "Roof_Inclination": 20.0, "Roof_Orientation": 60.0, "SB_uuid": "{16DB2F98-C672-4944-97B8-5B3EF2374B17}", "bus_name": "bus_LV_200-11_0_3_node_39", "bus_id": 668, "bus_max_power": 291.2 }, "geometry": { "type": "Point", "coordinates": [ 8.646965318595727, 47.412469883980059 ] } },
{ "type": "Feature", "properties": { "xtf_id": 169271, "Address": "In der Fröhlichkeit 17", "PostCode": 8306, "Municipality": "Brüttisellen", "Canton": "ZH", "BeginningOfOperation": "2020-06-09T00:00:00", "TotalPower": 17.700001, "SubCategory": "Photovoltaic", "PlantCategory": "Attached", "Roof_Area": 104.08016204833984, "Roof_Area_Warning": "False", "Roof_Inclination": 36.0, "Roof_Orientation": -78.0, "SB_uuid": "{5213537E-A92E-4199-A32B-D33CED6A54F7}", "bus_name": "bus_LV_200-4_0_3_node_28", "bus_id": 1407, "bus_max_power": 291.2 }, "geometry": { "type": "Point", "coordinates": [ 8.639078076983187, 47.423526194644829 ] } },
{ "type": "Feature", "properties": { "xtf_id": 163064, "Address": "Im Blattacher 34", "PostCode": 8602, "Municipality": "Wangen", "Canton": "ZH", "BeginningOfOperation": "2020-07-11T00:00:00", "TotalPower": 25.209999, "SubCategory": "Photovoltaic", "PlantCategory": "Attached", "Roof_Area": 13.707187652587891, "Roof_Area_Warning": "True", "Roof_Inclination": 14.0, "Roof_Orientation": 61.0, "SB_uuid": "{5B253BE2-C76D-4DE1-A476-29E6AEAD45EA}", "bus_name": "bus_LV_200-11_0_3_node_4", "bus_id": 665, "bus_max_power": 291.2 }, "geometry": { "type": "Point", "coordinates": [ 8.646916813548355, 47.412668285765697 ] } },
{ "type": "Feature", "properties": { "xtf_id": 172780, "Address": "Schwerzelbodenstrasse 41", "PostCode": 8305, "Municipality": "Dietlikon", "Canton": "ZH", "BeginningOfOperation": "2020-09-15T00:00:00", "TotalPower": 267.0, "SubCategory": "Photovoltaic", "PlantCategory": "Attached", "Roof_Area": 345.92950439453125, "Roof_Area_Warning": "True", "Roof_Inclination": 0.0, "Roof_Orientation": -180.0, "SB_uuid": "{C6DCA710-7AA3-4F06-9ED4-ED6F8A85A3C2}", "bus_name": "bus_MV_504_0_node_96", "bus_id": 64, "bus_max_power": 4400.0 }, "geometry": { "type": "Point", "coordinates": [ 8.613277795873508, 47.419581492861489 ] } },
{ "type": "Feature", "properties": { "xtf_id": 164493, "Address": "Gerenstrasse 37", "PostCode": 8602, "Municipality": "Wangen b. Dübendorf", "Canton": "ZH", "BeginningOfOperation": "2020-01-24T00:00:00", "TotalPower": 6.6, "SubCategory": "Photovoltaic", "PlantCategory": "Attached", "Roof_Area": 56.058208465576172, "Roof_Area_Warning": "False", "Roof_Inclination": 27.0, "Roof_Orientation": -65.0, "SB_uuid": "{7005D5FB-DCF3-4CCB-BD2B-080304ADEC05}", "bus_name": "bus_LV_200-10_1_3_node_17", "bus_id": 135, "bus_max_power": 291.2 }, "geometry": { "type": "Point", "coordinates": [ 8.639728768091611, 47.413004064320305 ] } },
{ "type": "Feature", "properties": { "xtf_id": 167664, "Address": "Leiweg  2/4 & Bachtelstrasse 3/5", "PostCode": 8305, "Municipality": "Dietlikon", "Canton": "ZH", "BeginningOfOperation": "2020-06-09T00:00:00", "TotalPower": 78.650002, "SubCategory": "Photovoltaic", "PlantCategory": "Attached", "Roof_Area": 106.58836364746094, "Roof_Area_Warning": "True", "Roof_Inclination": 0.0, "Roof_Orientation": -180.0, "SB_uuid": "{D9557CCB-8277-43E0-B4CF-76ADEED26BFB}", "bus_name": "bus_LV_54-9_0_5_node_117", "bus_id": 2699, "bus_max_power": 145.6 }, "geometry": { "type": "Point", "coordinates": [ 8.617552501104598, 47.422299486111264 ] } },
{ "type": "Feature", "properties": { "xtf_id": 177166, "Address": "Haldenstrasse 16& 16B", "PostCode": 8306, "Municipality": "Brüttisellen", "Canton": "ZH", "BeginningOfOperation": "2020-09-16T00:00:00", "TotalPower": 20.1, "SubCategory": "Photovoltaic", "PlantCategory": "Attached", "Roof_Area": 29.335346221923828, "Roof_Area_Warning": "True", "Roof_Inclination": 0.0, "Roof_Orientation": -117.0, "SB_uuid": "{58FD3343-8A94-41DD-9DF0-EB6B85C3F8D7}", "bus_name": "bus_LV_200-8_1_4_node_33", "bus_id": 994, "bus_max_power": 291.2 }, "geometry": { "type": "Point", "coordinates": [ 8.630050031211635, 47.420480275756731 ] } },
{ "type": "Feature", "properties": { "xtf_id": 171889, "Address": "Brunnenwiesenstrasse 35", "PostCode": 8305, "Municipality": "Dietlikon", "Canton": "ZH", "BeginningOfOperation": "2020-09-17T00:00:00", "TotalPower": 12.42, "SubCategory": "Photovoltaic", "PlantCategory": "Attached", "Roof_Area": 333.47836303710938, "Roof_Area_Warning": "False", "Roof_Inclination": 0.0, "Roof_Orientation": -180.0, "SB_uuid": "{C2305AC9-6017-47D3-B48B-468EAF0E5A4E}", "bus_name": "bus_LV_54-12_0_4_node_47", "bus_id": 2031, "bus_max_power": 291.2 }, "geometry": { "type": "Point", "coordinates": [ 8.62042526296684, 47.416774119509036 ] } },
{ "type": "Feature", "properties": { "xtf_id": 170962, "Address": "Brunnenwiesenstrasse 33", "PostCode": 8305, "Municipality": "Dietlikon", "Canton": "ZH", "BeginningOfOperation": "2020-09-23T00:00:00", "TotalPower": 10.73, "SubCategory": "Photovoltaic", "PlantCategory": "Attached", "Roof_Area": 333.47836303710938, "Roof_Area_Warning": "False", "Roof_Inclination": 0.0, "Roof_Orientation": -180.0, "SB_uuid": "{C2305AC9-6017-47D3-B48B-468EAF0E5A4E}", "bus_name": "bus_LV_54-12_0_4_node_47", "bus_id": 2031, "bus_max_power": 291.2 }, "geometry": { "type": "Point", "coordinates": [ 8.620373262537028, 47.4168196269041 ] } },
{ "type": "Feature", "properties": { "xtf_id": 176798, "Address": "Tretteliweg 5A", "PostCode": 8305, "Municipality": "Dietlikon", "Canton": "ZH", "BeginningOfOperation": "2020-11-30T00:00:00", "TotalPower": 12.24, "SubCategory": "Photovoltaic", "PlantCategory": "Attached", "Roof_Area": 56.151603698730469, "Roof_Area_Warning": "False", "Roof_Inclination": 24.0, "Roof_Orientation": 38.0, "SB_uuid": "{06A446ED-911E-4A11-91AF-19A9DE55F1C0}", "bus_name": "bus_LV_54-1_0_4_node_106", "bus_id": 2860, "bus_max_power": 291.2 }, "geometry": { "type": "Point", "coordinates": [ 8.617078496081835, 47.417051155665099 ] } },
{ "type": "Feature", "properties": { "xtf_id": 183223, "Address": "Im Chnebler 5", "PostCode": 8602, "Municipality": "Wangen b. Dübendorf", "Canton": "ZH", "BeginningOfOperation": "2021-03-15T00:00:00", "TotalPower": 17.549999, "SubCategory": "Photovoltaic", "PlantCategory": "Integrated", "Roof_Area": 132.66944885253906, "Roof_Area_Warning": "False", "Roof_Inclination": 25.0, "Roof_Orientation": 38.0, "SB_uuid": "{0B455FC7-60B1-473C-B3F9-483BB3E0A101}", "bus_name": "bus_LV_200-10_0_3_node_171", "bus_id": 656, "bus_max_power": 291.2 }, "geometry": { "type": "Point", "coordinates": [ 8.642854349095833, 47.414095943533347 ] } },
{ "type": "Feature", "properties": { "xtf_id": 175614, "Address": "Tödistrasse 5", "PostCode": 8305, "Municipality": "Dietlikon", "Canton": "ZH", "BeginningOfOperation": "2020-09-23T00:00:00", "TotalPower": 10.08, "SubCategory": "Photovoltaic", "PlantCategory": "Attached", "Roof_Area": 96.62139892578125, "Roof_Area_Warning": "False", "Roof_Inclination": 37.0, "Roof_Orientation": 22.0, "SB_uuid": "{FF287E7C-B4A7-40B7-A74C-1AF5D6889D28}", "bus_name": "bus_LV_54-13_0_4_node_51", "bus_id": 2951, "bus_max_power": 291.2 }, "geometry": { "type": "Point", "coordinates": [ 8.616867939415979, 47.418915297387876 ] } },
{ "type": "Feature", "properties": { "xtf_id": 176282, "Address": "Im Blattacher 3", "PostCode": 8602, "Municipality": "Wangen bei Dübendorf", "Canton": "ZH", "BeginningOfOperation": "2021-03-02T00:00:00", "TotalPower": 11.2, "SubCategory": "Photovoltaic", "PlantCategory": "Attached", "Roof_Area": 112.86089324951172, "Roof_Area_Warning": "False", "Roof_Inclination": 0.0, "Roof_Orientation": -180.0, "SB_uuid": "{8688AAAD-32A5-4F80-AEBE-30D852FB976B}", "bus_name": "bus_LV_200-11_0_3_node_34", "bus_id": 701, "bus_max_power": 291.2 }, "geometry": { "type": "Point", "coordinates": [ 8.647181342072525, 47.4114781516138 ] } },
{ "type": "Feature", "properties": { "xtf_id": 183113, "Address": "Stiegstrasse 4", "PostCode": 8602, "Municipality": "Wangen", "Canton": "ZH", "BeginningOfOperation": "2021-04-01T00:00:00", "TotalPower": 14.44, "SubCategory": "Photovoltaic", "PlantCategory": "Attached", "Roof_Area": 57.957874298095703, "Roof_Area_Warning": "False", "Roof_Inclination": 36.0, "Roof_Orientation": 84.0, "SB_uuid": "{B1F9D2D8-015F-4C51-A1B3-18800B89F9ED}", "bus_name": "bus_LV_200-9_0_4_node_20", "bus_id": 359, "bus_max_power": 145.6 }, "geometry": { "type": "Point", "coordinates": [ 8.64446788235349, 47.412783812218287 ] } },
{ "type": "Feature", "properties": { "xtf_id": 181002, "Address": "Riedenerstrasse 38 ", "PostCode": 8305, "Municipality": "Dietlikon", "Canton": "ZH", "BeginningOfOperation": "2021-04-19T00:00:00", "TotalPower": 7.6, "SubCategory": "Photovoltaic", "PlantCategory": "Attached", "Roof_Area": 102.89573669433594, "Roof_Area_Warning": "False", "Roof_Inclination": 34.0, "Roof_Orientation": 72.0, "SB_uuid": "{B3D60434-6999-468F-9AB8-050997445A24}", "bus_name": "bus_LV_54-15_0_5_node_151", "bus_id": 2068, "bus_max_power": 291.2 }, "geometry": { "type": "Point", "coordinates": [ 8.611853203859662, 47.422294498375408 ] } },
{ "type": "Feature", "properties": { "xtf_id": 224520, "Address": "Rütiring 8, 10", "PostCode": 8303, "Municipality": "Bassersdorf", "Canton": "ZH", "BeginningOfOperation": "2022-04-05T00:00:00", "TotalPower": 61.279999, "SubCategory": "Photovoltaic", "PlantCategory": "Attached", "Roof_Area": 66.891632080078125, "Roof_Area_Warning": "True", "Roof_Inclination": 0.0, "Roof_Orientation": -180.0, "SB_uuid": "{1C7E3EA4-33C7-44DD-9512-AB377FA6C4E2}", "bus_name": "bus_LV_52-15_0_5_node_254", "bus_id": 1739, "bus_max_power": 291.2 }, "geometry": { "type": "Point", "coordinates": [ 8.643555566117435, 47.428103132831616 ] } },
{ "type": "Feature", "properties": { "xtf_id": 216739, "Address": "Riedenerstrasse 28", "PostCode": 8305, "Municipality": "Dietlikon", "Canton": "ZH", "BeginningOfOperation": "2021-10-14T00:00:00", "TotalPower": 16.65, "SubCategory": "Photovoltaic", "PlantCategory": "Attached", "Roof_Area": 56.739151000976562, "Roof_Area_Warning": "True", "Roof_Inclination": 28.0, "Roof_Orientation": -27.0, "SB_uuid": "{E2EFD660-F41D-49D3-B8BB-CE46632BB881}", "bus_name": "bus_LV_54-15_0_5_node_3", "bus_id": 2037, "bus_max_power": 291.2 }, "geometry": { "type": "Point", "coordinates": [ 8.614330044521537, 47.42342071281405 ] } },
{ "type": "Feature", "properties": { "xtf_id": 195412, "Address": "Dörfli 19a", "PostCode": 8306, "Municipality": "Brüttisellen", "Canton": "ZH", "BeginningOfOperation": "2021-04-01T00:00:00", "TotalPower": 6.2399998, "SubCategory": "Photovoltaic", "PlantCategory": "Attached", "Roof_Area": 67.30621337890625, "Roof_Area_Warning": "False", "Roof_Inclination": 30.0, "Roof_Orientation": 6.0, "SB_uuid": "{A4365326-62EE-4FE1-9818-EC9F4DC8AB4A}", "bus_name": "bus_LV_200-14_0_6_node_100", "bus_id": 1218, "bus_max_power": 291.2 }, "geometry": { "type": "Point", "coordinates": [ 8.632821792236417, 47.42646943759673 ] } },
{ "type": "Feature", "properties": { "xtf_id": 192375, "Address": "Zürichstrasse 21c ", "PostCode": 8306, "Municipality": "Brüttisellen", "Canton": "ZH", "BeginningOfOperation": "2021-09-24T00:00:00", "TotalPower": 3.6500001, "SubCategory": "Photovoltaic", "PlantCategory": "Attached", "Roof_Area": 182.07218933105469, "Roof_Area_Warning": "False", "Roof_Inclination": 36.0, "Roof_Orientation": -2.0, "SB_uuid": "{49E15A86-CC60-44AB-A0EF-10ED3628BBFA}", "bus_name": "bus_LV_200-14_0_6_node_33", "bus_id": 1135, "bus_max_power": 291.2 }, "geometry": { "type": "Point", "coordinates": [ 8.632173243036833, 47.424146390170115 ] } },
{ "type": "Feature", "properties": { "xtf_id": 196826, "Address": "Riedenerstrasse 13 Dornenstrasse 50 ", "PostCode": 8305, "Municipality": "Dietlikon", "Canton": "ZH", "BeginningOfOperation": "2021-02-26T00:00:00", "TotalPower": 47.360001, "SubCategory": "Photovoltaic", "PlantCategory": "Attached", "Roof_Area": 114.900634765625, "Roof_Area_Warning": "True", "Roof_Inclination": 21.0, "Roof_Orientation": 56.0, "SB_uuid": "{CDAD2F8B-4896-4A19-8439-D9E80E0E056B}", "bus_name": "bus_LV_54-6_0_5_node_73", "bus_id": 2605, "bus_max_power": 145.6 }, "geometry": { "type": "Point", "coordinates": [ 8.615708370564894, 47.423415682941183 ] } },
{ "type": "Feature", "properties": { "xtf_id": 184783, "Address": "Säntisstrasse 16 ", "PostCode": 8305, "Municipality": "Dietlikon", "Canton": "ZH", "BeginningOfOperation": "2021-04-22T00:00:00", "TotalPower": 10.88, "SubCategory": "Photovoltaic", "PlantCategory": "Attached", "Roof_Area": 104.78881072998047, "Roof_Area_Warning": "False", "Roof_Inclination": 36.0, "Roof_Orientation": 8.0, "SB_uuid": "{39195DB0-B9DE-4FDF-B8CE-2E19079A070C}", "bus_name": "bus_LV_54-6_0_5_node_19", "bus_id": 2553, "bus_max_power": 291.2 }, "geometry": { "type": "Point", "coordinates": [ 8.620075284220224, 47.42310128516079 ] } },
{ "type": "Feature", "properties": { "xtf_id": 188627, "Address": "Gerenstrasse 25", "PostCode": 8602, "Municipality": "Wangen bei Dübendorf", "Canton": "ZH", "BeginningOfOperation": "2021-07-14T00:00:00", "TotalPower": 23.639999, "SubCategory": "Photovoltaic", "PlantCategory": "Attached", "Roof_Area": 75.151695251464844, "Roof_Area_Warning": "True", "Roof_Inclination": 26.0, "Roof_Orientation": 66.0, "SB_uuid": "{846D3030-DA18-4FAB-A824-DA8D50A25FBA}", "bus_name": "bus_LV_200-10_1_3_node_29", "bus_id": 130, "bus_max_power": 291.2 }, "geometry": { "type": "Point", "coordinates": [ 8.640423984464517, 47.413275689225763 ] } },
{ "type": "Feature", "properties": { "xtf_id": 194429, "Address": "Fuchshalde 5 ", "PostCode": 8305, "Municipality": "Dietlikon", "Canton": "ZH", "BeginningOfOperation": "2021-03-17T00:00:00", "TotalPower": 5.1, "SubCategory": "Photovoltaic", "PlantCategory": "Attached", "Roof_Area": 129.67118835449219, "Roof_Area_Warning": "False", "Roof_Inclination": 34.0, "Roof_Orientation": 27.0, "SB_uuid": "{A54B389A-40A6-434B-893C-FFE37DD4418E}", "bus_name": "bus_LV_54-13_0_4_node_66", "bus_id": 2930, "bus_max_power": 291.2 }, "geometry": { "type": "Point", "coordinates": [ 8.61487120511752, 47.419718208513771 ] } },
{ "type": "Feature", "properties": { "xtf_id": 190138, "Address": "Zürichstrasse 22", "PostCode": 8306, "Municipality": "Brüttisellen", "Canton": "ZH", "BeginningOfOperation": "2021-07-14T00:00:00", "TotalPower": 29.25, "SubCategory": "Photovoltaic", "PlantCategory": "Attached", "Roof_Area": 74.604194641113281, "Roof_Area_Warning": "True", "Roof_Inclination": 19.0, "Roof_Orientation": -38.0, "SB_uuid": "{C4B2F6B5-6356-41FF-91EC-3AB6AA148D80}", "bus_name": "bus_LV_200-14_0_6_node_71", "bus_id": 1165, "bus_max_power": 145.6 }, "geometry": { "type": "Point", "coordinates": [ 8.630592505513736, 47.42399179059197 ] } },
{ "type": "Feature", "properties": { "xtf_id": 191982, "Address": "Im Talacher 11a ", "PostCode": 8306, "Municipality": "Brüttisellen", "Canton": "ZH", "BeginningOfOperation": "2021-07-15T00:00:00", "TotalPower": 3.9, "SubCategory": "Photovoltaic", "PlantCategory": "Attached", "Roof_Area": 45.434993743896484, "Roof_Area_Warning": "False", "Roof_Inclination": 0.0, "Roof_Orientation": -180.0, "SB_uuid": "{86FC34B7-C067-42D8-85F5-8ED2510D7832}", "bus_name": "bus_LV_200-16_0_6_node_92", "bus_id": 1469, "bus_max_power": 291.2 }, "geometry": { "type": "Point", "coordinates": [ 8.626426358360217, 47.424394474654946 ] } },
{ "type": "Feature", "properties": { "xtf_id": 191336, "Address": "Gerenstrasse 27 ", "PostCode": 8602, "Municipality": "Wangen b. Dübendorf", "Canton": "ZH", "BeginningOfOperation": "2021-07-14T00:00:00", "TotalPower": 12.78, "SubCategory": "Photovoltaic", "PlantCategory": "Attached", "Roof_Area": 60.711460113525391, "Roof_Area_Warning": "False", "Roof_Inclination": 27.0, "Roof_Orientation": -64.0, "SB_uuid": "{C2EF7841-E2B0-4284-92CB-5E758B68415A}", "bus_name": "bus_LV_200-10_1_3_node_14", "bus_id": 125, "bus_max_power": 291.2 }, "geometry": { "type": "Point", "coordinates": [ 8.64052591450702, 47.41309472535049 ] } },
{ "type": "Feature", "properties": { "xtf_id": 206007, "Address": "Obere Wangenstrasse 3d ", "PostCode": 8306, "Municipality": "Brüttisellen", "Canton": "ZH", "BeginningOfOperation": "2021-10-21T00:00:00", "TotalPower": 15.0, "SubCategory": "Photovoltaic", "PlantCategory": "Attached", "Roof_Area": 101.41481781005859, "Roof_Area_Warning": "False", "Roof_Inclination": 33.0, "Roof_Orientation": 15.0, "SB_uuid": "{805A71FE-2176-48E4-8A3A-40FE4D2C51F5}", "bus_name": "bus_LV_200-4_1_5_node_82", "bus_id": 1026, "bus_max_power": 145.6 }, "geometry": { "type": "Point", "coordinates": [ 8.636169983094415, 47.42564323206539 ] } },
{ "type": "Feature", "properties": { "xtf_id": 250350, "Address": "Förliwiesenstrasse 4", "PostCode": 8602, "Municipality": "Wangen b. Dübendorf", "Canton": "ZH", "BeginningOfOperation": "2021-10-28T00:00:00", "TotalPower": 488.39999, "SubCategory": "Photovoltaic", "PlantCategory": "Attached", "Roof_Area": 6242.40966796875, "Roof_Area_Warning": "False", "Roof_Inclination": 0.0, "Roof_Orientation": -180.0, "SB_uuid": "{89BF2CE4-518A-42C9-9B48-8D824CEAE964}", "bus_name": "bus_MV_504_0_node_90", "bus_id": 13, "bus_max_power": 4400.0 }, "geometry": { "type": "Point", "coordinates": [ 8.635145739863543, 47.414274943217862 ] } },
{ "type": "Feature", "properties": { "xtf_id": 198521, "Address": "Rebackerweg 9 /11", "PostCode": 8305, "Municipality": "Dietlikon", "Canton": "ZH", "BeginningOfOperation": "2021-11-04T00:00:00", "TotalPower": 25.74, "SubCategory": "Photovoltaic", "PlantCategory": "Attached", "Roof_Area": 286.58123779296875, "Roof_Area_Warning": "False", "Roof_Inclination": 0.0, "Roof_Orientation": -180.0, "SB_uuid": "{1F7F91C8-23EB-4CFE-8F50-7F20120DAEFA}", "bus_name": "bus_LV_54-7_0_4_node_78", "bus_id": 2420, "bus_max_power": 291.2 }, "geometry": { "type": "Point", "coordinates": [ 8.618914908250538, 47.428753082433779 ] } },
{ "type": "Feature", "properties": { "xtf_id": 199842, "Address": "Zeglistrasse 8", "PostCode": 8602, "Municipality": "Wangen b. Dübendorf", "Canton": "ZH", "BeginningOfOperation": "2021-10-15T00:00:00", "TotalPower": 22.49, "SubCategory": "Photovoltaic", "PlantCategory": "Attached", "Roof_Area": 76.230323791503906, "Roof_Area_Warning": "True", "Roof_Inclination": 24.0, "Roof_Orientation": 52.0, "SB_uuid": "{A3556136-E8B2-4F34-91D5-379B728D9FE2}", "bus_name": "bus_LV_200-2_0_6_node_74", "bus_id": 288, "bus_max_power": 291.2 }, "geometry": { "type": "Point", "coordinates": [ 8.643840440837641, 47.409066337783905 ] } },
{ "type": "Feature", "properties": { "xtf_id": 197985, "Address": "Schulhausstrasse 26 ", "PostCode": 8306, "Municipality": "Brüttisellen", "Canton": "ZH", "BeginningOfOperation": "2021-08-30T00:00:00", "TotalPower": 5.9499998, "SubCategory": "Photovoltaic", "PlantCategory": "Attached", "Roof_Area": 107.41477966308594, "Roof_Area_Warning": "False", "Roof_Inclination": 33.0, "Roof_Orientation": -4.0, "SB_uuid": "{8AF02D08-14FA-4AE7-8948-1AA1D841E8CD}", "bus_name": "bus_LV_200-4_1_5_node_110", "bus_id": 1005, "bus_max_power": 291.2 }, "geometry": { "type": "Point", "coordinates": [ 8.635552742402295, 47.424129441918112 ] } },
{ "type": "Feature", "properties": { "xtf_id": 202344, "Address": "Im Obstgarten 7 ", "PostCode": 8602, "Municipality": "Wangen b. Dübendorf", "Canton": "ZH", "BeginningOfOperation": "2021-09-27T00:00:00", "TotalPower": 9.6300001, "SubCategory": "Photovoltaic", "PlantCategory": "Attached", "Roof_Area": 27.143632888793945, "Roof_Area_Warning": "True", "Roof_Inclination": 17.0, "Roof_Orientation": -3.0, "SB_uuid": "{EFFDEB96-18CF-49F7-B872-03304CDF6A13}", "bus_name": "bus_LV_200-10_1_3_node_138", "bus_id": 183, "bus_max_power": 291.2 }, "geometry": { "type": "Point", "coordinates": [ 8.64137474456437, 47.414300248090051 ] } },
{ "type": "Feature", "properties": { "xtf_id": 209495, "Address": "Riedenerstrasse 7/9 ", "PostCode": 8305, "Municipality": "Dietlikon", "Canton": "ZH", "BeginningOfOperation": "2022-04-13T00:00:00", "TotalPower": 12.78, "SubCategory": "Photovoltaic", "PlantCategory": "Integrated", "Roof_Area": 77.632331848144531, "Roof_Area_Warning": "False", "Roof_Inclination": 21.0, "Roof_Orientation": 20.0, "SB_uuid": "{E678D3B2-B9FA-41F4-BD62-AF136BEFAB5F}", "bus_name": "bus_LV_54-14_0_7_node_22", "bus_id": 2261, "bus_max_power": 145.6 }, "geometry": { "type": "Point", "coordinates": [ 8.615964390413835, 47.424204647346563 ] } },
{ "type": "Feature", "properties": { "xtf_id": 220062, "Address": "Fadackerstrasse 9", "PostCode": 8305, "Municipality": "Dietlikon", "Canton": "ZH", "BeginningOfOperation": "2022-06-23T00:00:00", "TotalPower": 31.129999, "SubCategory": "Photovoltaic", "PlantCategory": "Attached", "Roof_Area": 35.889717102050781, "Roof_Area_Warning": "True", "Roof_Inclination": 23.0, "Roof_Orientation": 27.0, "SB_uuid": "{174930B9-156D-4EE2-BCB8-82DD0E3EEE59}", "bus_name": "bus_LV_54-9_0_5_node_104", "bus_id": 2714, "bus_max_power": 436.8 }, "geometry": { "type": "Point", "coordinates": [ 8.615293219173038, 47.421422989814459 ] } },
{ "type": "Feature", "properties": { "xtf_id": 228721, "Address": "Säntisstrasse 13c", "PostCode": 8305, "Municipality": "Dietlikon", "Canton": "ZH", "BeginningOfOperation": "2022-06-17T00:00:00", "TotalPower": 9.46, "SubCategory": "Photovoltaic", "PlantCategory": "Attached", "Roof_Area": 4.5775814056396484, "Roof_Area_Warning": "True", "Roof_Inclination": 9.0, "Roof_Orientation": -121.0, "SB_uuid": "{7853EFB4-371B-42BD-8F3A-9795BE184B7B}", "bus_name": "bus_LV_54-6_0_5_node_27", "bus_id": 2568, "bus_max_power": 291.2 }, "geometry": { "type": "Point", "coordinates": [ 8.61939699380971, 47.423593952102294 ] } },
{ "type": "Feature", "properties": { "xtf_id": 216807, "Address": "Im Obstgarten 50", "PostCode": 8602, "Municipality": "Wangen b. Dübendorf", "Canton": "ZH", "BeginningOfOperation": "2022-03-28T00:00:00", "TotalPower": 15.2, "SubCategory": "Photovoltaic", "PlantCategory": "Attached", "Roof_Area": 101.62133026123047, "Roof_Area_Warning": "False", "Roof_Inclination": 34.0, "Roof_Orientation": -4.0, "SB_uuid": "{5CB8B96C-A919-4EBA-83AC-5A0006D7A560}", "bus_name": "bus_LV_200-10_1_3_node_165", "bus_id": 221, "bus_max_power": 291.2 }, "geometry": { "type": "Point", "coordinates": [ 8.639719104515379, 47.413750766299273 ] } },
{ "type": "Feature", "properties": { "xtf_id": 218448, "Address": "Riedmühlestrasse 31", "PostCode": 8306, "Municipality": "Brüttisellen", "Canton": "ZH", "BeginningOfOperation": "2022-03-23T00:00:00", "TotalPower": 12.25, "SubCategory": "Photovoltaic", "PlantCategory": "Attached", "Roof_Area": 56.362178802490234, "Roof_Area_Warning": "False", "Roof_Inclination": 34.0, "Roof_Orientation": 63.0, "SB_uuid": "{827CE9F8-6465-4238-B497-5445D83E134E}", "bus_name": "bus_LV_200-16_0_6_node_103", "bus_id": 1569, "bus_max_power": 291.2 }, "geometry": { "type": "Point", "coordinates": [ 8.626047913136604, 47.423471862170949 ] } },
{ "type": "Feature", "properties": { "xtf_id": 209654, "Address": "Riedmühlestrasse 33 ", "PostCode": 8306, "Municipality": "Brüttisellen", "Canton": "ZH", "BeginningOfOperation": "2022-03-17T00:00:00", "TotalPower": 9.4799995, "SubCategory": "Photovoltaic", "PlantCategory": "Attached", "Roof_Area": 59.511539459228516, "Roof_Area_Warning": "False", "Roof_Inclination": 38.0, "Roof_Orientation": 63.0, "SB_uuid": "{A60E94ED-B464-4308-BA37-3A1F0C5156CF}", "bus_name": "bus_LV_200-16_0_6_node_103", "bus_id": 1569, "bus_max_power": 291.2 }, "geometry": { "type": "Point", "coordinates": [ 8.625942103982259, 47.423481944019933 ] } },
{ "type": "Feature", "properties": { "xtf_id": 210136, "Address": "Riedmühlestrasse 35 ", "PostCode": 8306, "Municipality": "Brüttisellen", "Canton": "ZH", "BeginningOfOperation": "2022-03-23T00:00:00", "TotalPower": 9.0900002, "SubCategory": "Photovoltaic", "PlantCategory": "Attached", "Roof_Area": 58.658855438232422, "Roof_Area_Warning": "False", "Roof_Inclination": 38.0, "Roof_Orientation": 63.0, "SB_uuid": "{D12379CE-0661-4443-942F-0E9F629F3297}", "bus_name": "bus_LV_200-16_0_6_node_103", "bus_id": 1569, "bus_max_power": 291.2 }, "geometry": { "type": "Point", "coordinates": [ 8.625836896312057, 47.423519005034201 ] } },
{ "type": "Feature", "properties": { "xtf_id": 212477, "Address": "Riedmühlestrasse 39 ", "PostCode": 8306, "Municipality": "Brüttisellen", "Canton": "ZH", "BeginningOfOperation": "2022-02-28T00:00:00", "TotalPower": 9.0900002, "SubCategory": "Photovoltaic", "PlantCategory": "Attached", "Roof_Area": 72.959205627441406, "Roof_Area_Warning": "False", "Roof_Inclination": 35.0, "Roof_Orientation": -90.0, "SB_uuid": "{40904836-CE6D-4AA5-A80B-FC892F0D78AB}", "bus_name": "bus_LV_200-16_0_6_node_105", "bus_id": 1570, "bus_max_power": 145.6 }, "geometry": { "type": "Point", "coordinates": [ 8.625570268152845, 47.423449781568443 ] } },
{ "type": "Feature", "properties": { "xtf_id": 214170, "Address": "Riedmühlestrasse 41 ", "PostCode": 8306, "Municipality": "Brüttisellen", "Canton": "ZH", "BeginningOfOperation": "2022-03-15T00:00:00", "TotalPower": 11.86, "SubCategory": "Photovoltaic", "PlantCategory": "Attached", "Roof_Area": 59.277702331542969, "Roof_Area_Warning": "False", "Roof_Inclination": 37.0, "Roof_Orientation": 90.0, "SB_uuid": "{760A6968-2B9D-4958-97E6-E82E69913BD3}", "bus_name": "bus_LV_200-16_0_6_node_105", "bus_id": 1570, "bus_max_power": 145.6 }, "geometry": { "type": "Point", "coordinates": [ 8.625465060287201, 47.423486842244515 ] } },
{ "type": "Feature", "properties": { "xtf_id": 209444, "Address": "Riedmühlestrasse 47 ", "PostCode": 8306, "Municipality": "Brüttisellen", "Canton": "ZH", "BeginningOfOperation": "2022-03-15T00:00:00", "TotalPower": 12.25, "SubCategory": "Photovoltaic", "PlantCategory": "Attached", "Roof_Area": 62.229080200195312, "Roof_Area_Warning": "False", "Roof_Inclination": 37.0, "Roof_Orientation": 90.0, "SB_uuid": "{6B9E9024-179D-41EC-8AB2-2CDA4BC1A17F}", "bus_name": "bus_LV_200-16_0_6_node_105", "bus_id": 1570, "bus_max_power": 145.6 }, "geometry": { "type": "Point", "coordinates": [ 8.625283751977241, 47.423677601429027 ] } },
{ "type": "Feature", "properties": { "xtf_id": 215947, "Address": "Tretteliweg 8 ", "PostCode": 8305, "Municipality": "Dietlikon", "Canton": "ZH", "BeginningOfOperation": "2022-06-01T00:00:00", "TotalPower": 5.7, "SubCategory": "Photovoltaic", "PlantCategory": "Attached", "Roof_Area": 160.31822204589844, "Roof_Area_Warning": "False", "Roof_Inclination": 22.0, "Roof_Orientation": 38.0, "SB_uuid": "{85AF2C96-D9EB-4073-BED9-90971C414C8E}", "bus_name": "bus_LV_54-1_0_4_node_84", "bus_id": 2845, "bus_max_power": 291.2 }, "geometry": { "type": "Point", "coordinates": [ 8.616678698879383, 47.417549963852927 ] } },
{ "type": "Feature", "properties": { "xtf_id": 218876, "Address": "Im Fasnachtbuck 10", "PostCode": 8602, "Municipality": "Wangen b. Dübendorf", "Canton": "ZH", "BeginningOfOperation": "2022-06-29T00:00:00", "TotalPower": 15.17, "SubCategory": "Photovoltaic", "PlantCategory": "Attached", "Roof_Area": 32.325191497802734, "Roof_Area_Warning": "True", "Roof_Inclination": 11.0, "Roof_Orientation": 34.0, "SB_uuid": "{DFFBA168-605D-4362-B2E4-B7489BE899C4}", "bus_name": "bus_LV_200-10_0_3_node_70", "bus_id": 615, "bus_max_power": 291.2 }, "geometry": { "type": "Point", "coordinates": [ 8.643837570825266, 47.415381005145328 ] } },
{ "type": "Feature", "properties": { "xtf_id": 222005, "Address": "Altwiesenstrasse 28", "PostCode": 8602, "Municipality": "Wangen b. Dübendorf", "Canton": "ZH", "BeginningOfOperation": "2021-11-24T00:00:00", "TotalPower": 12.0, "SubCategory": "Photovoltaic", "PlantCategory": "Attached", "Roof_Area": 79.809707641601562, "Roof_Area_Warning": "False", "Roof_Inclination": 29.0, "Roof_Orientation": 58.0, "SB_uuid": "{0061A6F5-5AB9-4D73-9B23-3B4FC622F0B0}", "bus_name": "bus_LV_200-3_0_4_node_5", "bus_id": 835, "bus_max_power": 291.2 }, "geometry": { "type": "Point", "coordinates": [ 8.628972297897741, 47.412584621898006 ] } },
{ "type": "Feature", "properties": { "xtf_id": 217827, "Address": "Dörfli A 2", "PostCode": 8306, "Municipality": "Brüttisellen", "Canton": "ZH", "BeginningOfOperation": "2022-04-13T00:00:00", "TotalPower": 10.08, "SubCategory": "Photovoltaic", "PlantCategory": "Attached", "Roof_Area": 110.89445495605469, "Roof_Area_Warning": "False", "Roof_Inclination": 40.0, "Roof_Orientation": 2.0, "SB_uuid": "{F82B2A4A-1CAB-418A-A64A-357471043B60}", "bus_name": "bus_LV_200-14_0_6_node_76", "bus_id": 1186, "bus_max_power": 291.2 }, "geometry": { "type": "Point", "coordinates": [ 8.631638742415852, 47.42631973849182 ] } },
{ "type": "Feature", "properties": { "xtf_id": 231946, "Address": "Im Obstgarten 5", "PostCode": 8602, "Municipality": "Wangen b. Dübendorf", "Canton": "ZH", "BeginningOfOperation": "2022-06-08T00:00:00", "TotalPower": 8.1899996, "SubCategory": "Photovoltaic", "PlantCategory": "Attached", "Roof_Area": 68.299140930175781, "Roof_Area_Warning": "False", "Roof_Inclination": 25.0, "Roof_Orientation": -12.0, "SB_uuid": "{126C61DB-5478-4131-8EE3-96818111248B}", "bus_name": "bus_LV_200-10_1_3_node_139", "bus_id": 179, "bus_max_power": 291.2 }, "geometry": { "type": "Point", "coordinates": [ 8.641627285960405, 47.41433360083019 ] } },
{ "type": "Feature", "properties": { "xtf_id": 255816, "Address": "Im Bungert 10", "PostCode": 8306, "Municipality": "Brüttisellen", "Canton": "ZH", "BeginningOfOperation": "2023-01-18T00:00:00", "TotalPower": 17.200001, "SubCategory": "Photovoltaic", "PlantCategory": "Attached", "Roof_Area": 25.117439270019531, "Roof_Area_Warning": "True", "Roof_Inclination": 32.0, "Roof_Orientation": -91.0, "SB_uuid": "{3512FC2F-9EFA-4490-8583-9555EEC44CAA}", "bus_name": "bus_LV_200-14_0_6_node_32", "bus_id": 1115, "bus_max_power": 291.2 }, "geometry": { "type": "Point", "coordinates": [ 8.632520342859051, 47.423666062962283 ] } },
{ "type": "Feature", "properties": { "xtf_id": 234143, "Address": "Säntisstrasse 34", "PostCode": 8305, "Municipality": "Dietlikon", "Canton": "ZH", "BeginningOfOperation": "2022-09-09T00:00:00", "TotalPower": 10.8, "SubCategory": "Photovoltaic", "PlantCategory": "Attached", "Roof_Area": 52.842014312744141, "Roof_Area_Warning": "False", "Roof_Inclination": 42.0, "Roof_Orientation": -53.0, "SB_uuid": "{457FA2EA-6D35-4076-955C-84B7306993F7}", "bus_name": "bus_LV_54-6_0_5_node_44", "bus_id": 2569, "bus_max_power": 291.2 }, "geometry": { "type": "Point", "coordinates": [ 8.619025466190999, 47.42417343456286 ] } },
{ "type": "Feature", "properties": { "xtf_id": 250635, "Address": "Sonnhalde 12", "PostCode": 8602, "Municipality": "Wangen b. Dübendorf", "Canton": "ZH", "BeginningOfOperation": "2023-02-21T00:00:00", "TotalPower": 17.48, "SubCategory": "Photovoltaic", "PlantCategory": "Attached", "Roof_Area": 150.79637145996094, "Roof_Area_Warning": "False", "Roof_Inclination": 0.0, "Roof_Orientation": -180.0, "SB_uuid": "{76ED0420-87B6-42CD-ABC2-3641859CC847}", "bus_name": "bus_LV_200-10_0_3_node_81", "bus_id": 618, "bus_max_power": 291.2 }, "geometry": { "type": "Point", "coordinates": [ 8.642928697274554, 47.415039665117703 ] } },
{ "type": "Feature", "properties": { "xtf_id": 251822, "Address": "Riedtstrasse 2", "PostCode": 8303, "Municipality": "Bassersdorf", "Canton": "ZH", "BeginningOfOperation": "2022-07-26T00:00:00", "TotalPower": 12.0, "SubCategory": "Photovoltaic", "PlantCategory": "Attached", "Roof_Area": 54.300765991210938, "Roof_Area_Warning": "False", "Roof_Inclination": 22.0, "Roof_Orientation": -30.0, "SB_uuid": "{98AE4661-DDCA-4487-AC57-DC267D3756E8}", "bus_name": "bus_LV_52-12_0_4_node_51", "bus_id": 1308, "bus_max_power": 291.2 }, "geometry": { "type": "Point", "coordinates": [ 8.639063837495256, 47.428185836720083 ] } },
{ "type": "Feature", "properties": { "xtf_id": 237533, "Address": "Riedmühlestrasse 43", "PostCode": 8306, "Municipality": "Brüttisellen", "Canton": "ZH", "BeginningOfOperation": "2022-09-16T00:00:00", "TotalPower": 12.8, "SubCategory": "Photovoltaic", "PlantCategory": "Attached", "Roof_Area": 64.404136657714844, "Roof_Area_Warning": "False", "Roof_Inclination": 37.0, "Roof_Orientation": 90.0, "SB_uuid": "{371DAB69-874F-4878-9419-808BA2E1815A}", "bus_name": "bus_LV_200-16_0_6_node_105", "bus_id": 1570, "bus_max_power": 145.6 }, "geometry": { "type": "Point", "coordinates": [ 8.625400207251323, 47.423550474014682 ] } },
{ "type": "Feature", "properties": { "xtf_id": 233782, "Address": "Altwiesenstrasse 24", "PostCode": 8602, "Municipality": "Wangen b. Dübendorf", "Canton": "ZH", "BeginningOfOperation": "2022-07-04T00:00:00", "TotalPower": 15.17, "SubCategory": "Photovoltaic", "PlantCategory": "Attached", "Roof_Area": 88.869544982910156, "Roof_Area_Warning": "False", "Roof_Inclination": 40.0, "Roof_Orientation": 56.0, "SB_uuid": "{A3C1409E-C5E5-4DBC-AD88-B97DBD988A61}", "bus_name": "bus_LV_200-3_0_4_node_4", "bus_id": 834, "bus_max_power": 291.2 }, "geometry": { "type": "Point", "coordinates": [ 8.629908945258894, 47.412988750692875 ] } },
{ "type": "Feature", "properties": { "xtf_id": 246217, "Address": "Neue Winterthurerstrasse 7", "PostCode": 8305, "Municipality": "Dietlikon", "Canton": "ZH", "BeginningOfOperation": "2022-08-31T00:00:00", "TotalPower": 707.94, "SubCategory": "Photovoltaic", "PlantCategory": "Attached", "Roof_Area": 2809.145263671875, "Roof_Area_Warning": "True", "Roof_Inclination": 0.0, "Roof_Orientation": -169.0, "SB_uuid": "{522724E0-72A9-4ED5-840E-3B228FFD7FCC}", "bus_name": "bus_MV_504_0_node_92", "bus_id": 115, "bus_max_power": 4400.0 }, "geometry": { "type": "Point", "coordinates": [ 8.621175834275762, 47.415363198695729 ] } },
{ "type": "Feature", "properties": { "xtf_id": 242629, "Address": "Dorfstrasse 20", "PostCode": 8305, "Municipality": "Dietlikon", "Canton": "ZH", "BeginningOfOperation": "2022-12-15T00:00:00", "TotalPower": 32.560001, "SubCategory": "Photovoltaic", "PlantCategory": "Attached", "Roof_Area": 245.33740234375, "Roof_Area_Warning": "False", "Roof_Inclination": 0.0, "Roof_Orientation": -180.0, "SB_uuid": "{F0B43609-68AF-4858-8ADE-3273D90AA7CF}", "bus_name": "bus_LV_54-14_0_7_node_50", "bus_id": 2287, "bus_max_power": 436.8 }, "geometry": { "type": "Point", "coordinates": [ 8.617075737983663, 47.42710774524793 ] } },
{ "type": "Feature", "properties": { "xtf_id": 250214, "Address": "Weidenweg 2", "PostCode": 8305, "Municipality": "Dietlikon", "Canton": "ZH", "BeginningOfOperation": "2022-12-19T00:00:00", "TotalPower": 11.2, "SubCategory": "Photovoltaic", "PlantCategory": "Attached", "Roof_Area": 78.597236633300781, "Roof_Area_Warning": "False", "Roof_Inclination": 29.0, "Roof_Orientation": 23.0, "SB_uuid": "{3BC74A21-C0CF-46F3-9099-5E1AFE862F1E}", "bus_name": "bus_LV_54-12_0_4_node_17", "bus_id": 2007, "bus_max_power": 291.2 }, "geometry": { "type": "Point", "coordinates": [ 8.619073422233734, 47.417966297076184 ] } },
{ "type": "Feature", "properties": { "xtf_id": 261795, "Address": "Fuchshalde 15", "PostCode": 8305, "Municipality": "Dietlikon", "Canton": "ZH", "BeginningOfOperation": "2023-02-20T00:00:00", "TotalPower": 8.0, "SubCategory": "Photovoltaic", "PlantCategory": "Attached", "Roof_Area": 190.35977172851562, "Roof_Area_Warning": "False", "Roof_Inclination": 28.0, "Roof_Orientation": 27.0, "SB_uuid": "{D7FE3884-966A-4375-9559-D50058EFDC89}", "bus_name": "bus_LV_54-9_0_5_node_16", "bus_id": 2648, "bus_max_power": 291.2 }, "geometry": { "type": "Point", "coordinates": [ 8.61393738028576, 47.420042536012815 ] } },
{ "type": "Feature", "properties": { "xtf_id": 244301, "Address": "Riedmühlestrasse 45", "PostCode": 8306, "Municipality": "Brüttisellen", "Canton": "ZH", "BeginningOfOperation": "2022-09-16T00:00:00", "TotalPower": 12.8, "SubCategory": "Photovoltaic", "PlantCategory": "Attached", "Roof_Area": 60.721225738525391, "Roof_Area_Warning": "False", "Roof_Inclination": 38.0, "Roof_Orientation": 90.0, "SB_uuid": "{B043FC33-2105-4073-AB83-24389DA01349}", "bus_name": "bus_LV_200-16_0_6_node_105", "bus_id": 1570, "bus_max_power": 145.6 }, "geometry": { "type": "Point", "coordinates": [ 8.625335354060338, 47.423614105747134 ] } },
{ "type": "Feature", "properties": { "xtf_id": 241050, "Address": "Im Dörnler 4", "PostCode": 8602, "Municipality": "Wangen b. Dübendorf", "Canton": "ZH", "BeginningOfOperation": "2022-11-10T00:00:00", "TotalPower": 10.28, "SubCategory": "Photovoltaic", "PlantCategory": "Integrated", "Roof_Area": 96.702011108398438, "Roof_Area_Warning": "False", "Roof_Inclination": 37.0, "Roof_Orientation": -33.0, "SB_uuid": "{4F713D7A-C0DA-4B8A-80EC-3EAC8DAFB8B0}", "bus_name": "bus_LV_200-6_0_6_node_104", "bus_id": 507, "bus_max_power": 291.2 }, "geometry": { "type": "Point", "coordinates": [ 8.647621058620405, 47.408082353708231 ] } },
{ "type": "Feature", "properties": { "xtf_id": 254147, "Address": "Schulhausstrasse 24", "PostCode": 8306, "Municipality": "Brüttisellen", "Canton": "ZH", "BeginningOfOperation": "2023-02-22T00:00:00", "TotalPower": 6.08, "SubCategory": "Photovoltaic", "PlantCategory": "Attached", "Roof_Area": 107.41477966308594, "Roof_Area_Warning": "False", "Roof_Inclination": 33.0, "Roof_Orientation": -4.0, "SB_uuid": "{8AF02D08-14FA-4AE7-8948-1AA1D841E8CD}", "bus_name": "bus_LV_200-4_1_5_node_110", "bus_id": 1005, "bus_max_power": 291.2 }, "geometry": { "type": "Point", "coordinates": [ 8.635486283515528, 47.424121134787612 ] } },
{ "type": "Feature", "properties": { "xtf_id": 275123, "Address": "Dorfstrasse 51", "PostCode": 8306, "Municipality": "Brüttisellen", "Canton": "ZH", "BeginningOfOperation": "2023-02-27T00:00:00", "TotalPower": 8.1, "SubCategory": "Photovoltaic", "PlantCategory": "Attached", "Roof_Area": 91.322914123535156, "Roof_Area_Warning": "False", "Roof_Inclination": 32.0, "Roof_Orientation": -4.0, "SB_uuid": "{AE5AD2CC-BC74-4DA3-B304-111F9B864FA3}", "bus_name": "bus_LV_200-4_1_5_node_116", "bus_id": 1006, "bus_max_power": 145.6 }, "geometry": { "type": "Point", "coordinates": [ 8.63523664380881, 47.423628985008669 ] } },
{ "type": "Feature", "properties": { "xtf_id": 255541, "Address": "Dorfstrasse 69", "PostCode": 8306, "Municipality": "Brüttisellen", "Canton": "ZH", "BeginningOfOperation": "2023-02-27T00:00:00", "TotalPower": 8.5100002, "SubCategory": "Photovoltaic", "PlantCategory": "Attached", "Roof_Area": 159.43350219726562, "Roof_Area_Warning": "False", "Roof_Inclination": 36.0, "Roof_Orientation": -4.0, "SB_uuid": "{0535DACD-A002-4238-9428-C2E18CF47935}", "bus_name": "bus_LV_200-4_1_5_node_110", "bus_id": 1005, "bus_max_power": 291.2 }, "geometry": { "type": "Point", "coordinates": [ 8.635494077012972, 47.423878184738946 ] } },
{ "type": "Feature", "properties": { "xtf_id": 255520, "Address": "Dorfstrasse 67", "PostCode": 8306, "Municipality": "Brüttisellen", "Canton": "ZH", "BeginningOfOperation": "2023-02-27T00:00:00", "TotalPower": 6.08, "SubCategory": "Photovoltaic", "PlantCategory": "Attached", "Roof_Area": 159.43350219726562, "Roof_Area_Warning": "False", "Roof_Inclination": 36.0, "Roof_Orientation": -4.0, "SB_uuid": "{0535DACD-A002-4238-9428-C2E18CF47935}", "bus_name": "bus_LV_200-4_1_5_node_110", "bus_id": 1005, "bus_max_power": 291.2 }, "geometry": { "type": "Point", "coordinates": [ 8.635427618449169, 47.423869877574035 ] } },
{ "type": "Feature", "properties": { "xtf_id": 255522, "Address": "Dorfstrasse 65", "PostCode": 8306, "Municipality": "Brüttisellen", "Canton": "ZH", "BeginningOfOperation": "2023-02-27T00:00:00", "TotalPower": 6.08, "SubCategory": "Photovoltaic", "PlantCategory": "Attached", "Roof_Area": 159.43350219726562, "Roof_Area_Warning": "False", "Roof_Inclination": 36.0, "Roof_Orientation": -4.0, "SB_uuid": "{0535DACD-A002-4238-9428-C2E18CF47935}", "bus_name": "bus_LV_200-4_1_5_node_109", "bus_id": 1007, "bus_max_power": 291.2 }, "geometry": { "type": "Point", "coordinates": [ 8.63536136202527, 47.423870563440502 ] } },
{ "type": "Feature", "properties": { "xtf_id": 269722, "Address": "Schulhausstrasse 16", "PostCode": 8306, "Municipality": "Brüttisellen", "Canton": "ZH", "BeginningOfOperation": "2023-03-06T00:00:00", "TotalPower": 7.7, "SubCategory": "Photovoltaic", "PlantCategory": "Attached", "Roof_Area": 94.485397338867188, "Roof_Area_Warning": "False", "Roof_Inclination": 30.0, "Roof_Orientation": -4.0, "SB_uuid": "{43A3E1FF-F669-4B0C-8112-FF156FD5302F}", "bus_name": "bus_LV_200-4_1_5_node_86", "bus_id": 1035, "bus_max_power": 145.6 }, "geometry": { "type": "Point", "coordinates": [ 8.635531899876543, 47.424381522208797 ] } },
{ "type": "Feature", "properties": { "xtf_id": 290187, "Address": "Obere Wangenstrasse 22", "PostCode": 8306, "Municipality": "Brüttisellen", "Canton": "ZH", "BeginningOfOperation": "2023-05-29T00:00:00", "TotalPower": 28.219999, "SubCategory": "Photovoltaic", "PlantCategory": "Attached", "Roof_Area": 85.391105651855469, "Roof_Area_Warning": "True", "Roof_Inclination": 0.0, "Roof_Orientation": -180.0, "SB_uuid": "{4BAEA789-614C-4359-8030-E025ACE82B23}", "bus_name": "bus_LV_200-4_0_3_node_80", "bus_id": 1451, "bus_max_power": 291.2 }, "geometry": { "type": "Point", "coordinates": [ 8.636305241319562, 47.422817349956368 ] } },
{ "type": "Feature", "properties": { "xtf_id": 271742, "Address": "Im Fasnachtbuck 2", "PostCode": 8602, "Municipality": "Wangen b. Dübendorf", "Canton": "ZH", "BeginningOfOperation": "2023-05-10T00:00:00", "TotalPower": 13.12, "SubCategory": "Photovoltaic", "PlantCategory": "Attached", "Roof_Area": 133.91804504394531, "Roof_Area_Warning": "False", "Roof_Inclination": 18.0, "Roof_Orientation": -50.0, "SB_uuid": "{C1EE0233-B050-4B35-854B-FA8E4DCEEB75}", "bus_name": "bus_LV_200-10_0_3_node_64", "bus_id": 632, "bus_max_power": 291.2 }, "geometry": { "type": "Point", "coordinates": [ 8.64498943168047, 47.415333008741122 ] } },
{ "type": "Feature", "properties": { "xtf_id": 257065, "Address": "Riedenerstrasse 1c", "PostCode": 8305, "Municipality": "Dietlikon", "Canton": "ZH", "BeginningOfOperation": "2022-12-23T00:00:00", "TotalPower": 17.33, "SubCategory": "Photovoltaic", "PlantCategory": "Integrated", "Roof_Area": 47.063022613525391, "Roof_Area_Warning": "True", "Roof_Inclination": 29.0, "Roof_Orientation": -71.0, "SB_uuid": "{2719DAFD-19DB-45FF-97D1-8DB10593D028}", "bus_name": "bus_LV_54-14_0_7_node_36", "bus_id": 2268, "bus_max_power": 291.2 }, "geometry": { "type": "Point", "coordinates": [ 8.616438533970191, 47.424667564607589 ] } },
{ "type": "Feature", "properties": { "xtf_id": 305774, "Address": "Chileweg 15", "PostCode": 8306, "Municipality": "Brüttisellen", "Canton": "ZH", "BeginningOfOperation": "2022-10-05T00:00:00", "TotalPower": 15.84, "SubCategory": "Photovoltaic", "PlantCategory": "Attached", "Roof_Area": 31.921192169189453, "Roof_Area_Warning": "True", "Roof_Inclination": 28.0, "Roof_Orientation": 65.0, "SB_uuid": "{8500B75E-2BED-499E-A2C6-972AC24B9E11}", "bus_name": "bus_LV_200-4_0_3_node_67", "bus_id": 1454, "bus_max_power": 291.2 }, "geometry": { "type": "Point", "coordinates": [ 8.635163863924529, 47.421569845458016 ] } },
{ "type": "Feature", "properties": { "xtf_id": 297258, "Address": "Speerstrasse 8", "PostCode": 8305, "Municipality": "Dietlikon", "Canton": "ZH", "BeginningOfOperation": "2023-04-26T00:00:00", "TotalPower": 13.8, "SubCategory": "Photovoltaic", "PlantCategory": "Attached", "Roof_Area": 100.6278076171875, "Roof_Area_Warning": "False", "Roof_Inclination": 34.0, "Roof_Orientation": 28.0, "SB_uuid": "{FF20AEC1-6323-451C-A62A-2700DD9AB075}", "bus_name": "bus_LV_54-9_0_5_node_154", "bus_id": 2640, "bus_max_power": 145.6 }, "geometry": { "type": "Point", "coordinates": [ 8.61748379175047, 47.420393217438303 ] } },
{ "type": "Feature", "properties": { "xtf_id": 303347, "Address": "Gerenstrasse 41", "PostCode": 8602, "Municipality": "Wangen b. Dübendorf", "Canton": "ZH", "BeginningOfOperation": "2023-01-31T00:00:00", "TotalPower": 11.7, "SubCategory": "Photovoltaic", "PlantCategory": "Attached", "Roof_Area": 57.319694519042969, "Roof_Area_Warning": "False", "Roof_Inclination": 24.0, "Roof_Orientation": -63.0, "SB_uuid": "{FC2BC957-9B34-4391-8175-9F209C16D119}", "bus_name": "bus_LV_200-10_1_3_node_9", "bus_id": 123, "bus_max_power": 145.6 }, "geometry": { "type": "Point", "coordinates": [ 8.640057547819097, 47.412892704965969 ] } },
{ "type": "Feature", "properties": { "xtf_id": 320150, "Address": "Haldenstrasse 23", "PostCode": 8306, "Municipality": "Brüttisellen", "Canton": "ZH", "BeginningOfOperation": "2021-10-11T00:00:00", "TotalPower": 167.2, "SubCategory": "Photovoltaic", "PlantCategory": "Attached", "Roof_Area": 1278.155517578125, "Roof_Area_Warning": "False", "Roof_Inclination": 7.0, "Roof_Orientation": 49.0, "SB_uuid": "{2255F6F7-E2AE-4F34-AD6A-4FC57C8D0914}", "bus_name": "bus_LV_200-12_0_4_node_30", "bus_id": 768, "bus_max_power": 291.2 }, "geometry": { "type": "Point", "coordinates": [ 8.631780351017849, 47.419625879459694 ] } }
]
}
